<?xml version="1.0" encoding="UTF-8"?>
<gpx version="1.1" creator="route-planner" xmlns="http://www.topografix.com/GPX/1/1">
<trk><name>COFFEE run - Melbourne CBD</name><trkseg>
<trkpt lat="-37.810000" lon="144.965000"></trkpt>
<trkpt lat="-37.810000" lon="144.966500"></trkpt>
<trkpt lat="-37.810000" lon="144.965000"></trkpt>
<trkpt lat="-37.812500" lon="144.965000"></trkpt>
<trkpt lat="-37.812500" lon="144.966500"></trkpt>
<trkpt lat="-37.812500" lon="144.968000"></trkpt>
<trkpt lat="-37.812500" lon="144.968000"></trkpt>
<trkpt lat="-37.810000" lon="144.968000"></trkpt>
<trkpt lat="-37.810000" lon="144.969500"></trkpt>
<trkpt lat="-37.812500" lon="144.969500"></trkpt>
<trkpt lat="-37.812500" lon="144.971000"></trkpt>
<trkpt lat="-37.812500" lon="144.971000"></trkpt>
<trkpt lat="-37.810000" lon="144.971000"></trkpt>
<trkpt lat="-37.810000" lon="144.972500"></trkpt>
<trkpt lat="-37.810000" lon="144.971000"></trkpt>
<trkpt lat="-37.811500" lon="144.971000"></trkpt>
<trkpt lat="-37.811500" lon="144.972500"></trkpt>
<trkpt lat="-37.811500" lon="144.974000"></trkpt>
<trkpt lat="-37.811500" lon="144.974000"></trkpt>
<trkpt lat="-37.810000" lon="144.974000"></trkpt>
<trkpt lat="-37.810000" lon="144.975500"></trkpt>
<trkpt lat="-37.810000" lon="144.974000"></trkpt>
<trkpt lat="-37.811500" lon="144.974000"></trkpt>
<trkpt lat="-37.811500" lon="144.975500"></trkpt>
<trkpt lat="-37.811500" lon="144.977000"></trkpt>
<trkpt lat="-37.811500" lon="144.977000"></trkpt>
<trkpt lat="-37.811500" lon="144.978500"></trkpt>
<trkpt lat="-37.811500" lon="144.977000"></trkpt>
<trkpt lat="-37.812500" lon="144.977000"></trkpt>
<trkpt lat="-37.812500" lon="144.978500"></trkpt>
<trkpt lat="-37.812500" lon="144.977000"></trkpt>
<trkpt lat="-37.810000" lon="144.977000"></trkpt>
<trkpt lat="-37.810000" lon="144.978500"></trkpt>
<trkpt lat="-37.810000" lon="144.980000"></trkpt>
<trkpt lat="-37.810000" lon="144.980000"></trkpt>
<trkpt lat="-37.810000" lon="144.981500"></trkpt>
<trkpt lat="-37.810000" lon="144.980000"></trkpt>
<trkpt lat="-37.811500" lon="144.980000"></trkpt>
<trkpt lat="-37.811500" lon="144.981500"></trkpt>
<trkpt lat="-37.811500" lon="144.980000"></trkpt>
<trkpt lat="-37.812500" lon="144.980000"></trkpt>
<trkpt lat="-37.812500" lon="144.981500"></trkpt>
</trkseg></trk></gpx>