<?xml version="1.0" encoding="UTF-8"?>
<gpx version="1.1" creator="coffee-route" xmlns="http://www.topografix.com/GPX/1/1">
<trk><name>COFFEE</name><trkseg>
<trkpt lat="-37.8153929" lon="144.9553432"><ele>30.0</ele></trkpt>
<trkpt lat="-37.8154748" lon="144.9550616"><ele>30.0</ele></trkpt>
<trkpt lat="-37.8155566" lon="144.9547800"><ele>30.0</ele></trkpt>
<trkpt lat="-37.8156385" lon="144.9544985"><ele>30.0</ele></trkpt>
<trkpt lat="-37.8157203" lon="144.9542169"><ele>30.0</ele></trkpt>
<trkpt lat="-37.8158022" lon="144.9539353"><ele>30.0</ele></trkpt>
<trkpt lat="-37.8158840" lon="144.9536537"><ele>30.0</ele></trkpt>
<trkpt lat="-37.8159658" lon="144.9533722"><ele>30.0</ele></trkpt>
<trkpt lat="-37.8160477" lon="144.9530906"><ele>30.0</ele></trkpt>
<trkpt lat="-37.8161295" lon="144.9528090"><ele>30.0</ele></trkpt>
<trkpt lat="-37.8159157" lon="144.9527094"><ele>30.0</ele></trkpt>
<trkpt lat="-37.8157019" lon="144.9526098"><ele>30.0</ele></trkpt>
<trkpt lat="-37.8154880" lon="144.9525103"><ele>30.0</ele></trkpt>
<trkpt lat="-37.8152742" lon="144.9524107"><ele>30.0</ele></trkpt>
<trkpt lat="-37.8150604" lon="144.9523111"><ele>30.0</ele></trkpt>
<trkpt lat="-37.8148465" lon="144.9522115"><ele>30.0</ele></trkpt>
<trkpt lat="-37.8146327" lon="144.9521119"><ele>30.0</ele></trkpt>
<trkpt lat="-37.8144188" lon="144.9520123"><ele>30.0</ele></trkpt>
<trkpt lat="-37.8142050" lon="144.9519127"><ele>30.0</ele></trkpt>
<trkpt lat="-37.8139912" lon="144.9518131"><ele>30.0</ele></trkpt>
<trkpt lat="-37.8137773" lon="144.9517135"><ele>30.0</ele></trkpt>
<trkpt lat="-37.8135635" lon="144.9516139"><ele>30.0</ele></trkpt>
<trkpt lat="-37.8133497" lon="144.9515144"><ele>30.0</ele></trkpt>
<trkpt lat="-37.8131358" lon="144.9514148"><ele>30.0</ele></trkpt>
<trkpt lat="-37.8130540" lon="144.9516963"><ele>30.0</ele></trkpt>
<trkpt lat="-37.8129721" lon="144.9519779"><ele>30.0</ele></trkpt>
<trkpt lat="-37.8128903" lon="144.9522595"><ele>30.0</ele></trkpt>
<trkpt lat="-37.8128085" lon="144.9525411"><ele>30.0</ele></trkpt>
<trkpt lat="-37.8127266" lon="144.9528226"><ele>30.0</ele></trkpt>
<trkpt lat="-37.8126448" lon="144.9531042"><ele>30.0</ele></trkpt>
<trkpt lat="-37.8125629" lon="144.9533858"><ele>30.0</ele></trkpt>
<trkpt lat="-37.8124811" lon="144.9536673"><ele>30.0</ele></trkpt>
<trkpt lat="-37.8123992" lon="144.9539489"><ele>30.0</ele></trkpt>
<trkpt lat="-37.8123193" lon="144.9542241"><ele>30.0</ele></trkpt>
<trkpt lat="-37.8122393" lon="144.9544992"><ele>30.0</ele></trkpt>
<trkpt lat="-37.8121593" lon="144.9547744"><ele>30.0</ele></trkpt>
<trkpt lat="-37.8120793" lon="144.9550496"><ele>30.0</ele></trkpt>
<trkpt lat="-37.8119993" lon="144.9553247"><ele>30.0</ele></trkpt>
<trkpt lat="-37.8119194" lon="144.9555999"><ele>30.0</ele></trkpt>
<trkpt lat="-37.8118394" lon="144.9558751"><ele>30.0</ele></trkpt>
<trkpt lat="-37.8117594" lon="144.9561502"><ele>30.0</ele></trkpt>
<trkpt lat="-37.8116794" lon="144.9564254"><ele>30.0</ele></trkpt>
<trkpt lat="-37.8116794" lon="144.9564254"><ele>30.0</ele></trkpt>
<trkpt lat="-37.8118933" lon="144.9565250"><ele>30.0</ele></trkpt>
<trkpt lat="-37.8121071" lon="144.9566246"><ele>30.0</ele></trkpt>
<trkpt lat="-37.8123209" lon="144.9567242"><ele>30.0</ele></trkpt>
<trkpt lat="-37.8125348" lon="144.9568237"><ele>30.0</ele></trkpt>
<trkpt lat="-37.8127486" lon="144.9569233"><ele>30.0</ele></trkpt>
<trkpt lat="-37.8129624" lon="144.9570229"><ele>30.0</ele></trkpt>
<trkpt lat="-37.8131763" lon="144.9571225"><ele>30.0</ele></trkpt>
<trkpt lat="-37.8133901" lon="144.9572221"><ele>30.0</ele></trkpt>
<trkpt lat="-37.8136039" lon="144.9573217"><ele>30.0</ele></trkpt>
<trkpt lat="-37.8138178" lon="144.9574213"><ele>30.0</ele></trkpt>
<trkpt lat="-37.8140316" lon="144.9575209"><ele>30.0</ele></trkpt>
<trkpt lat="-37.8142455" lon="144.9576205"><ele>30.0</ele></trkpt>
<trkpt lat="-37.8144593" lon="144.9577201"><ele>30.0</ele></trkpt>
<trkpt lat="-37.8146731" lon="144.9578196"><ele>30.0</ele></trkpt>
<trkpt lat="-37.8145931" lon="144.9580949"><ele>30.0</ele></trkpt>
<trkpt lat="-37.8145131" lon="144.9583702"><ele>30.0</ele></trkpt>
<trkpt lat="-37.8144331" lon="144.9586455"><ele>30.0</ele></trkpt>
<trkpt lat="-37.8143531" lon="144.9589208"><ele>30.0</ele></trkpt>
<trkpt lat="-37.8142731" lon="144.9591961"><ele>30.0</ele></trkpt>
<trkpt lat="-37.8141930" lon="144.9594713"><ele>30.0</ele></trkpt>
<trkpt lat="-37.8141130" lon="144.9597466"><ele>30.0</ele></trkpt>
<trkpt lat="-37.8140330" lon="144.9600219"><ele>30.0</ele></trkpt>
<trkpt lat="-37.8139530" lon="144.9602972"><ele>30.0</ele></trkpt>
<trkpt lat="-37.8137392" lon="144.9601976"><ele>30.0</ele></trkpt>
<trkpt lat="-37.8135253" lon="144.9600980"><ele>30.0</ele></trkpt>
<trkpt lat="-37.8133115" lon="144.9599984"><ele>30.0</ele></trkpt>
<trkpt lat="-37.8130977" lon="144.9598988"><ele>30.0</ele></trkpt>
<trkpt lat="-37.8128838" lon="144.9597992"><ele>30.0</ele></trkpt>
<trkpt lat="-37.8126700" lon="144.9596996"><ele>30.0</ele></trkpt>
<trkpt lat="-37.8124561" lon="144.9596001"><ele>30.0</ele></trkpt>
<trkpt lat="-37.8122423" lon="144.9595005"><ele>30.0</ele></trkpt>
<trkpt lat="-37.8120285" lon="144.9594009"><ele>30.0</ele></trkpt>
<trkpt lat="-37.8118146" lon="144.9593013"><ele>30.0</ele></trkpt>
<trkpt lat="-37.8116008" lon="144.9592017"><ele>30.0</ele></trkpt>
<trkpt lat="-37.8113870" lon="144.9591021"><ele>30.0</ele></trkpt>
<trkpt lat="-37.8111731" lon="144.9590025"><ele>30.0</ele></trkpt>
<trkpt lat="-37.8109593" lon="144.9589029"><ele>30.0</ele></trkpt>
<trkpt lat="-37.8110393" lon="144.9586276"><ele>30.0</ele></trkpt>
<trkpt lat="-37.8111193" lon="144.9583524"><ele>30.0</ele></trkpt>
<trkpt lat="-37.8111993" lon="144.9580771"><ele>30.0</ele></trkpt>
<trkpt lat="-37.8112794" lon="144.9578018"><ele>30.0</ele></trkpt>
<trkpt lat="-37.8113594" lon="144.9575265"><ele>30.0</ele></trkpt>
<trkpt lat="-37.8114394" lon="144.9572512"><ele>30.0</ele></trkpt>
<trkpt lat="-37.8115194" lon="144.9569759"><ele>30.0</ele></trkpt>
<trkpt lat="-37.8115994" lon="144.9567007"><ele>30.0</ele></trkpt>
<trkpt lat="-37.8116794" lon="144.9564254"><ele>30.0</ele></trkpt>
<trkpt lat="-37.8115996" lon="144.9566999"><ele>30.0</ele></trkpt>
<trkpt lat="-37.8115198" lon="144.9569744"><ele>30.0</ele></trkpt>
<trkpt lat="-37.8114401" lon="144.9572489"><ele>30.0</ele></trkpt>
<trkpt lat="-37.8113603" lon="144.9575234"><ele>30.0</ele></trkpt>
<trkpt lat="-37.8112805" lon="144.9577979"><ele>30.0</ele></trkpt>
<trkpt lat="-37.8112007" lon="144.9580724"><ele>30.0</ele></trkpt>
<trkpt lat="-37.8111209" lon="144.9583470"><ele>30.0</ele></trkpt>
<trkpt lat="-37.8110411" lon="144.9586215"><ele>30.0</ele></trkpt>
<trkpt lat="-37.8109613" lon="144.9588960"><ele>30.0</ele></trkpt>
<trkpt lat="-37.8108815" lon="144.9591705"><ele>30.0</ele></trkpt>
<trkpt lat="-37.8108017" lon="144.9594450"><ele>30.0</ele></trkpt>
<trkpt lat="-37.8107219" lon="144.9597195"><ele>30.0</ele></trkpt>
<trkpt lat="-37.8106422" lon="144.9599940"><ele>30.0</ele></trkpt>
<trkpt lat="-37.8105624" lon="144.9602685"><ele>30.0</ele></trkpt>
<trkpt lat="-37.8104826" lon="144.9605430"><ele>30.0</ele></trkpt>
<trkpt lat="-37.8104028" lon="144.9608175"><ele>30.0</ele></trkpt>
<trkpt lat="-37.8103230" lon="144.9610921"><ele>30.0</ele></trkpt>
<trkpt lat="-37.8102432" lon="144.9613666"><ele>30.0</ele></trkpt>
<trkpt lat="-37.8102432" lon="144.9613666"><ele>30.0</ele></trkpt>
<trkpt lat="-37.8104570" lon="144.9614662"><ele>30.0</ele></trkpt>
<trkpt lat="-37.8106709" lon="144.9615657"><ele>30.0</ele></trkpt>
<trkpt lat="-37.8108847" lon="144.9616653"><ele>30.0</ele></trkpt>
<trkpt lat="-37.8110985" lon="144.9617649"><ele>30.0</ele></trkpt>
<trkpt lat="-37.8113124" lon="144.9618645"><ele>30.0</ele></trkpt>
<trkpt lat="-37.8115262" lon="144.9619641"><ele>30.0</ele></trkpt>
<trkpt lat="-37.8117401" lon="144.9620637"><ele>30.0</ele></trkpt>
<trkpt lat="-37.8119539" lon="144.9621633"><ele>30.0</ele></trkpt>
<trkpt lat="-37.8121677" lon="144.9622629"><ele>30.0</ele></trkpt>
<trkpt lat="-37.8123816" lon="144.9623625"><ele>30.0</ele></trkpt>
<trkpt lat="-37.8125954" lon="144.9624621"><ele>30.0</ele></trkpt>
<trkpt lat="-37.8128092" lon="144.9625616"><ele>30.0</ele></trkpt>
<trkpt lat="-37.8130231" lon="144.9626612"><ele>30.0</ele></trkpt>
<trkpt lat="-37.8132369" lon="144.9627608"><ele>30.0</ele></trkpt>
<trkpt lat="-37.8130231" lon="144.9626612"><ele>30.0</ele></trkpt>
<trkpt lat="-37.8128092" lon="144.9625616"><ele>30.0</ele></trkpt>
<trkpt lat="-37.8125954" lon="144.9624621"><ele>30.0</ele></trkpt>
<trkpt lat="-37.8123816" lon="144.9623625"><ele>30.0</ele></trkpt>
<trkpt lat="-37.8121677" lon="144.9622629"><ele>30.0</ele></trkpt>
<trkpt lat="-37.8119539" lon="144.9621633"><ele>30.0</ele></trkpt>
<trkpt lat="-37.8117401" lon="144.9620637"><ele>30.0</ele></trkpt>
<trkpt lat="-37.8115262" lon="144.9619641"><ele>30.0</ele></trkpt>
<trkpt lat="-37.8113124" lon="144.9618645"><ele>30.0</ele></trkpt>
<trkpt lat="-37.8110985" lon="144.9617649"><ele>30.0</ele></trkpt>
<trkpt lat="-37.8108847" lon="144.9616653"><ele>30.0</ele></trkpt>
<trkpt lat="-37.8106709" lon="144.9615657"><ele>30.0</ele></trkpt>
<trkpt lat="-37.8104570" lon="144.9614662"><ele>30.0</ele></trkpt>
<trkpt lat="-37.8102432" lon="144.9613666"><ele>30.0</ele></trkpt>
<trkpt lat="-37.8101552" lon="144.9616693"><ele>30.0</ele></trkpt>
<trkpt lat="-37.8100672" lon="144.9619720"><ele>30.0</ele></trkpt>
<trkpt lat="-37.8099793" lon="144.9622747"><ele>30.0</ele></trkpt>
<trkpt lat="-37.8098913" lon="144.9625774"><ele>30.0</ele></trkpt>
<trkpt lat="-37.8098033" lon="144.9628801"><ele>30.0</ele></trkpt>
<trkpt lat="-37.8097153" lon="144.9631828"><ele>30.0</ele></trkpt>
<trkpt lat="-37.8098033" lon="144.9628801"><ele>30.0</ele></trkpt>
<trkpt lat="-37.8098913" lon="144.9625774"><ele>30.0</ele></trkpt>
<trkpt lat="-37.8099793" lon="144.9622747"><ele>30.0</ele></trkpt>
<trkpt lat="-37.8100672" lon="144.9619720"><ele>30.0</ele></trkpt>
<trkpt lat="-37.8101552" lon="144.9616693"><ele>30.0</ele></trkpt>
<trkpt lat="-37.8102432" lon="144.9613666"><ele>30.0</ele></trkpt>
<trkpt lat="-37.8104625" lon="144.9614687"><ele>30.0</ele></trkpt>
<trkpt lat="-37.8106817" lon="144.9615708"><ele>30.0</ele></trkpt>
<trkpt lat="-37.8109010" lon="144.9616729"><ele>30.0</ele></trkpt>
<trkpt lat="-37.8111202" lon="144.9617750"><ele>30.0</ele></trkpt>
<trkpt lat="-37.8113395" lon="144.9618771"><ele>30.0</ele></trkpt>
<trkpt lat="-37.8115587" lon="144.9619793"><ele>30.0</ele></trkpt>
<trkpt lat="-37.8117780" lon="144.9620814"><ele>30.0</ele></trkpt>
<trkpt lat="-37.8119972" lon="144.9621835"><ele>30.0</ele></trkpt>
<trkpt lat="-37.8122165" lon="144.9622856"><ele>30.0</ele></trkpt>
<trkpt lat="-37.8121285" lon="144.9625883"><ele>30.0</ele></trkpt>
<trkpt lat="-37.8120405" lon="144.9628910"><ele>30.0</ele></trkpt>
<trkpt lat="-37.8119525" lon="144.9631937"><ele>30.0</ele></trkpt>
<trkpt lat="-37.8118646" lon="144.9634964"><ele>30.0</ele></trkpt>
<trkpt lat="-37.8117766" lon="144.9637991"><ele>30.0</ele></trkpt>
<trkpt lat="-37.8116886" lon="144.9641018"><ele>30.0</ele></trkpt>
<trkpt lat="-37.8117766" lon="144.9637991"><ele>30.0</ele></trkpt>
<trkpt lat="-37.8118646" lon="144.9634964"><ele>30.0</ele></trkpt>
<trkpt lat="-37.8119525" lon="144.9631937"><ele>30.0</ele></trkpt>
<trkpt lat="-37.8120405" lon="144.9628910"><ele>30.0</ele></trkpt>
<trkpt lat="-37.8121285" lon="144.9625883"><ele>30.0</ele></trkpt>
<trkpt lat="-37.8122165" lon="144.9622856"><ele>30.0</ele></trkpt>
<trkpt lat="-37.8119972" lon="144.9621835"><ele>30.0</ele></trkpt>
<trkpt lat="-37.8117780" lon="144.9620814"><ele>30.0</ele></trkpt>
<trkpt lat="-37.8115587" lon="144.9619793"><ele>30.0</ele></trkpt>
<trkpt lat="-37.8113395" lon="144.9618771"><ele>30.0</ele></trkpt>
<trkpt lat="-37.8111202" lon="144.9617750"><ele>30.0</ele></trkpt>
<trkpt lat="-37.8109010" lon="144.9616729"><ele>30.0</ele></trkpt>
<trkpt lat="-37.8106817" lon="144.9615708"><ele>30.0</ele></trkpt>
<trkpt lat="-37.8104625" lon="144.9614687"><ele>30.0</ele></trkpt>
<trkpt lat="-37.8102432" lon="144.9613666"><ele>30.0</ele></trkpt>
<trkpt lat="-37.8101655" lon="144.9616338"><ele>30.0</ele></trkpt>
<trkpt lat="-37.8100879" lon="144.9619010"><ele>30.0</ele></trkpt>
<trkpt lat="-37.8100102" lon="144.9621682"><ele>30.0</ele></trkpt>
<trkpt lat="-37.8099325" lon="144.9624354"><ele>30.0</ele></trkpt>
<trkpt lat="-37.8098549" lon="144.9627026"><ele>30.0</ele></trkpt>
<trkpt lat="-37.8097772" lon="144.9629698"><ele>30.0</ele></trkpt>
<trkpt lat="-37.8096995" lon="144.9632370"><ele>30.0</ele></trkpt>
<trkpt lat="-37.8096219" lon="144.9635042"><ele>30.0</ele></trkpt>
<trkpt lat="-37.8095442" lon="144.9637715"><ele>30.0</ele></trkpt>
<trkpt lat="-37.8095442" lon="144.9637715"><ele>30.0</ele></trkpt>
<trkpt lat="-37.8097580" lon="144.9638710"><ele>30.0</ele></trkpt>
<trkpt lat="-37.8099719" lon="144.9639706"><ele>30.0</ele></trkpt>
<trkpt lat="-37.8101857" lon="144.9640702"><ele>30.0</ele></trkpt>
<trkpt lat="-37.8103995" lon="144.9641698"><ele>30.0</ele></trkpt>
<trkpt lat="-37.8106134" lon="144.9642694"><ele>30.0</ele></trkpt>
<trkpt lat="-37.8108272" lon="144.9643690"><ele>30.0</ele></trkpt>
<trkpt lat="-37.8110410" lon="144.9644686"><ele>30.0</ele></trkpt>
<trkpt lat="-37.8112549" lon="144.9645682"><ele>30.0</ele></trkpt>
<trkpt lat="-37.8114687" lon="144.9646678"><ele>30.0</ele></trkpt>
<trkpt lat="-37.8116825" lon="144.9647674"><ele>30.0</ele></trkpt>
<trkpt lat="-37.8118964" lon="144.9648669"><ele>30.0</ele></trkpt>
<trkpt lat="-37.8121102" lon="144.9649665"><ele>30.0</ele></trkpt>
<trkpt lat="-37.8123241" lon="144.9650661"><ele>30.0</ele></trkpt>
<trkpt lat="-37.8125379" lon="144.9651657"><ele>30.0</ele></trkpt>
<trkpt lat="-37.8123241" lon="144.9650661"><ele>30.0</ele></trkpt>
<trkpt lat="-37.8121102" lon="144.9649665"><ele>30.0</ele></trkpt>
<trkpt lat="-37.8118964" lon="144.9648669"><ele>30.0</ele></trkpt>
<trkpt lat="-37.8116825" lon="144.9647674"><ele>30.0</ele></trkpt>
<trkpt lat="-37.8114687" lon="144.9646678"><ele>30.0</ele></trkpt>
<trkpt lat="-37.8112549" lon="144.9645682"><ele>30.0</ele></trkpt>
<trkpt lat="-37.8110410" lon="144.9644686"><ele>30.0</ele></trkpt>
<trkpt lat="-37.8108272" lon="144.9643690"><ele>30.0</ele></trkpt>
<trkpt lat="-37.8106134" lon="144.9642694"><ele>30.0</ele></trkpt>
<trkpt lat="-37.8103995" lon="144.9641698"><ele>30.0</ele></trkpt>
<trkpt lat="-37.8101857" lon="144.9640702"><ele>30.0</ele></trkpt>
<trkpt lat="-37.8099719" lon="144.9639706"><ele>30.0</ele></trkpt>
<trkpt lat="-37.8097580" lon="144.9638710"><ele>30.0</ele></trkpt>
<trkpt lat="-37.8095442" lon="144.9637715"><ele>30.0</ele></trkpt>
<trkpt lat="-37.8094562" lon="144.9640742"><ele>30.0</ele></trkpt>
<trkpt lat="-37.8093682" lon="144.9643769"><ele>30.0</ele></trkpt>
<trkpt lat="-37.8092802" lon="144.9646796"><ele>30.0</ele></trkpt>
<trkpt lat="-37.8091923" lon="144.9649823"><ele>30.0</ele></trkpt>
<trkpt lat="-37.8091043" lon="144.9652850"><ele>30.0</ele></trkpt>
<trkpt lat="-37.8090163" lon="144.9655877"><ele>30.0</ele></trkpt>
<trkpt lat="-37.8091043" lon="144.9652850"><ele>30.0</ele></trkpt>
<trkpt lat="-37.8091923" lon="144.9649823"><ele>30.0</ele></trkpt>
<trkpt lat="-37.8092802" lon="144.9646796"><ele>30.0</ele></trkpt>
<trkpt lat="-37.8093682" lon="144.9643769"><ele>30.0</ele></trkpt>
<trkpt lat="-37.8094562" lon="144.9640742"><ele>30.0</ele></trkpt>
<trkpt lat="-37.8095442" lon="144.9637715"><ele>30.0</ele></trkpt>
<trkpt lat="-37.8097635" lon="144.9638736"><ele>30.0</ele></trkpt>
<trkpt lat="-37.8099827" lon="144.9639757"><ele>30.0</ele></trkpt>
<trkpt lat="-37.8102020" lon="144.9640778"><ele>30.0</ele></trkpt>
<trkpt lat="-37.8104212" lon="144.9641799"><ele>30.0</ele></trkpt>
<trkpt lat="-37.8106405" lon="144.9642820"><ele>30.0</ele></trkpt>
<trkpt lat="-37.8108597" lon="144.9643841"><ele>30.0</ele></trkpt>
<trkpt lat="-37.8110790" lon="144.9644863"><ele>30.0</ele></trkpt>
<trkpt lat="-37.8112982" lon="144.9645884"><ele>30.0</ele></trkpt>
<trkpt lat="-37.8115175" lon="144.9646905"><ele>30.0</ele></trkpt>
<trkpt lat="-37.8114295" lon="144.9649932"><ele>30.0</ele></trkpt>
<trkpt lat="-37.8113415" lon="144.9652959"><ele>30.0</ele></trkpt>
<trkpt lat="-37.8112535" lon="144.9655986"><ele>30.0</ele></trkpt>
<trkpt lat="-37.8111655" lon="144.9659013"><ele>30.0</ele></trkpt>
<trkpt lat="-37.8110776" lon="144.9662040"><ele>30.0</ele></trkpt>
<trkpt lat="-37.8109896" lon="144.9665067"><ele>30.0</ele></trkpt>
<trkpt lat="-37.8110776" lon="144.9662040"><ele>30.0</ele></trkpt>
<trkpt lat="-37.8111655" lon="144.9659013"><ele>30.0</ele></trkpt>
<trkpt lat="-37.8112535" lon="144.9655986"><ele>30.0</ele></trkpt>
<trkpt lat="-37.8113415" lon="144.9652959"><ele>30.0</ele></trkpt>
<trkpt lat="-37.8114295" lon="144.9649932"><ele>30.0</ele></trkpt>
<trkpt lat="-37.8115175" lon="144.9646905"><ele>30.0</ele></trkpt>
<trkpt lat="-37.8112982" lon="144.9645884"><ele>30.0</ele></trkpt>
<trkpt lat="-37.8110790" lon="144.9644863"><ele>30.0</ele></trkpt>
<trkpt lat="-37.8108597" lon="144.9643841"><ele>30.0</ele></trkpt>
<trkpt lat="-37.8106405" lon="144.9642820"><ele>30.0</ele></trkpt>
<trkpt lat="-37.8104212" lon="144.9641799"><ele>30.0</ele></trkpt>
<trkpt lat="-37.8102020" lon="144.9640778"><ele>30.0</ele></trkpt>
<trkpt lat="-37.8099827" lon="144.9639757"><ele>30.0</ele></trkpt>
<trkpt lat="-37.8097635" lon="144.9638736"><ele>30.0</ele></trkpt>
<trkpt lat="-37.8095442" lon="144.9637715"><ele>30.0</ele></trkpt>
<trkpt lat="-37.8094632" lon="144.9640502"><ele>30.0</ele></trkpt>
<trkpt lat="-37.8093822" lon="144.9643289"><ele>30.0</ele></trkpt>
<trkpt lat="-37.8093012" lon="144.9646076"><ele>30.0</ele></trkpt>
<trkpt lat="-37.8092201" lon="144.9648864"><ele>30.0</ele></trkpt>
<trkpt lat="-37.8091391" lon="144.9651651"><ele>30.0</ele></trkpt>
<trkpt lat="-37.8090581" lon="144.9654438"><ele>30.0</ele></trkpt>
<trkpt lat="-37.8089771" lon="144.9657225"><ele>30.0</ele></trkpt>
<trkpt lat="-37.8088961" lon="144.9660012"><ele>30.0</ele></trkpt>
<trkpt lat="-37.8088151" lon="144.9662800"><ele>30.0</ele></trkpt>
<trkpt lat="-37.8088151" lon="144.9662800"><ele>30.0</ele></trkpt>
<trkpt lat="-37.8090289" lon="144.9663796"><ele>30.0</ele></trkpt>
<trkpt lat="-37.8092427" lon="144.9664792"><ele>30.0</ele></trkpt>
<trkpt lat="-37.8094566" lon="144.9665787"><ele>30.0</ele></trkpt>
<trkpt lat="-37.8096704" lon="144.9666783"><ele>30.0</ele></trkpt>
<trkpt lat="-37.8098842" lon="144.9667779"><ele>30.0</ele></trkpt>
<trkpt lat="-37.8100981" lon="144.9668775"><ele>30.0</ele></trkpt>
<trkpt lat="-37.8103119" lon="144.9669771"><ele>30.0</ele></trkpt>
<trkpt lat="-37.8105257" lon="144.9670767"><ele>30.0</ele></trkpt>
<trkpt lat="-37.8107396" lon="144.9671763"><ele>30.0</ele></trkpt>
<trkpt lat="-37.8109534" lon="144.9672759"><ele>30.0</ele></trkpt>
<trkpt lat="-37.8111672" lon="144.9673755"><ele>30.0</ele></trkpt>
<trkpt lat="-37.8113811" lon="144.9674751"><ele>30.0</ele></trkpt>
<trkpt lat="-37.8115949" lon="144.9675746"><ele>30.0</ele></trkpt>
<trkpt lat="-37.8118088" lon="144.9676742"><ele>30.0</ele></trkpt>
<trkpt lat="-37.8115949" lon="144.9675746"><ele>30.0</ele></trkpt>
<trkpt lat="-37.8113811" lon="144.9674751"><ele>30.0</ele></trkpt>
<trkpt lat="-37.8111672" lon="144.9673755"><ele>30.0</ele></trkpt>
<trkpt lat="-37.8109534" lon="144.9672759"><ele>30.0</ele></trkpt>
<trkpt lat="-37.8107396" lon="144.9671763"><ele>30.0</ele></trkpt>
<trkpt lat="-37.8105257" lon="144.9670767"><ele>30.0</ele></trkpt>
<trkpt lat="-37.8103119" lon="144.9669771"><ele>30.0</ele></trkpt>
<trkpt lat="-37.8100981" lon="144.9668775"><ele>30.0</ele></trkpt>
<trkpt lat="-37.8098842" lon="144.9667779"><ele>30.0</ele></trkpt>
<trkpt lat="-37.8096704" lon="144.9666783"><ele>30.0</ele></trkpt>
<trkpt lat="-37.8094566" lon="144.9665787"><ele>30.0</ele></trkpt>
<trkpt lat="-37.8092427" lon="144.9664792"><ele>30.0</ele></trkpt>
<trkpt lat="-37.8090289" lon="144.9663796"><ele>30.0</ele></trkpt>
<trkpt lat="-37.8088151" lon="144.9662800"><ele>30.0</ele></trkpt>
<trkpt lat="-37.8087271" lon="144.9665827"><ele>30.0</ele></trkpt>
<trkpt lat="-37.8086391" lon="144.9668854"><ele>30.0</ele></trkpt>
<trkpt lat="-37.8085511" lon="144.9671881"><ele>30.0</ele></trkpt>
<trkpt lat="-37.8084631" lon="144.9674908"><ele>30.0</ele></trkpt>
<trkpt lat="-37.8083751" lon="144.9677935"><ele>30.0</ele></trkpt>
<trkpt lat="-37.8082872" lon="144.9680962"><ele>30.0</ele></trkpt>
<trkpt lat="-37.8083751" lon="144.9677935"><ele>30.0</ele></trkpt>
<trkpt lat="-37.8084631" lon="144.9674908"><ele>30.0</ele></trkpt>
<trkpt lat="-37.8085511" lon="144.9671881"><ele>30.0</ele></trkpt>
<trkpt lat="-37.8086391" lon="144.9668854"><ele>30.0</ele></trkpt>
<trkpt lat="-37.8087271" lon="144.9665827"><ele>30.0</ele></trkpt>
<trkpt lat="-37.8088151" lon="144.9662800"><ele>30.0</ele></trkpt>
<trkpt lat="-37.8090343" lon="144.9663821"><ele>30.0</ele></trkpt>
<trkpt lat="-37.8092536" lon="144.9664842"><ele>30.0</ele></trkpt>
<trkpt lat="-37.8094728" lon="144.9665863"><ele>30.0</ele></trkpt>
<trkpt lat="-37.8096921" lon="144.9666884"><ele>30.0</ele></trkpt>
<trkpt lat="-37.8099113" lon="144.9667905"><ele>30.0</ele></trkpt>
<trkpt lat="-37.8101306" lon="144.9668927"><ele>30.0</ele></trkpt>
<trkpt lat="-37.8103498" lon="144.9669948"><ele>30.0</ele></trkpt>
<trkpt lat="-37.8105691" lon="144.9670969"><ele>30.0</ele></trkpt>
<trkpt lat="-37.8107884" lon="144.9671990"><ele>30.0</ele></trkpt>
<trkpt lat="-37.8107004" lon="144.9675017"><ele>30.0</ele></trkpt>
<trkpt lat="-37.8106124" lon="144.9678044"><ele>30.0</ele></trkpt>
<trkpt lat="-37.8105244" lon="144.9681071"><ele>30.0</ele></trkpt>
<trkpt lat="-37.8104364" lon="144.9684098"><ele>30.0</ele></trkpt>
<trkpt lat="-37.8103484" lon="144.9687125"><ele>30.0</ele></trkpt>
<trkpt lat="-37.8102604" lon="144.9690152"><ele>30.0</ele></trkpt>
<trkpt lat="-37.8103484" lon="144.9687125"><ele>30.0</ele></trkpt>
<trkpt lat="-37.8104364" lon="144.9684098"><ele>30.0</ele></trkpt>
<trkpt lat="-37.8105244" lon="144.9681071"><ele>30.0</ele></trkpt>
<trkpt lat="-37.8106124" lon="144.9678044"><ele>30.0</ele></trkpt>
<trkpt lat="-37.8107004" lon="144.9675017"><ele>30.0</ele></trkpt>
<trkpt lat="-37.8107884" lon="144.9671990"><ele>30.0</ele></trkpt>
<trkpt lat="-37.8110435" lon="144.9673178"><ele>30.0</ele></trkpt>
<trkpt lat="-37.8112986" lon="144.9674366"><ele>30.0</ele></trkpt>
<trkpt lat="-37.8115537" lon="144.9675554"><ele>30.0</ele></trkpt>
<trkpt lat="-37.8118088" lon="144.9676742"><ele>30.0</ele></trkpt>
<trkpt lat="-37.8117208" lon="144.9679769"><ele>30.0</ele></trkpt>
<trkpt lat="-37.8116328" lon="144.9682796"><ele>30.0</ele></trkpt>
<trkpt lat="-37.8115448" lon="144.9685823"><ele>30.0</ele></trkpt>
<trkpt lat="-37.8114568" lon="144.9688850"><ele>30.0</ele></trkpt>
<trkpt lat="-37.8113688" lon="144.9691877"><ele>30.0</ele></trkpt>
<trkpt lat="-37.8112808" lon="144.9694904"><ele>30.0</ele></trkpt>
<trkpt lat="-37.8111920" lon="144.9697960"><ele>30.0</ele></trkpt>
<trkpt lat="-37.8111032" lon="144.9701016"><ele>30.0</ele></trkpt>
<trkpt lat="-37.8111032" lon="144.9701016"><ele>30.0</ele></trkpt>
<trkpt lat="-37.8108894" lon="144.9700020"><ele>30.0</ele></trkpt>
<trkpt lat="-37.8106756" lon="144.9699024"><ele>30.0</ele></trkpt>
<trkpt lat="-37.8104617" lon="144.9698028"><ele>30.0</ele></trkpt>
<trkpt lat="-37.8102479" lon="144.9697032"><ele>30.0</ele></trkpt>
<trkpt lat="-37.8100340" lon="144.9696036"><ele>30.0</ele></trkpt>
<trkpt lat="-37.8098202" lon="144.9695040"><ele>30.0</ele></trkpt>
<trkpt lat="-37.8096064" lon="144.9694044"><ele>30.0</ele></trkpt>
<trkpt lat="-37.8093925" lon="144.9693048"><ele>30.0</ele></trkpt>
<trkpt lat="-37.8091787" lon="144.9692052"><ele>30.0</ele></trkpt>
<trkpt lat="-37.8089649" lon="144.9691057"><ele>30.0</ele></trkpt>
<trkpt lat="-37.8087510" lon="144.9690061"><ele>30.0</ele></trkpt>
<trkpt lat="-37.8085372" lon="144.9689065"><ele>30.0</ele></trkpt>
<trkpt lat="-37.8083234" lon="144.9688069"><ele>30.0</ele></trkpt>
<trkpt lat="-37.8081095" lon="144.9687073"><ele>30.0</ele></trkpt>
<trkpt lat="-37.8080215" lon="144.9690100"><ele>30.0</ele></trkpt>
<trkpt lat="-37.8079336" lon="144.9693127"><ele>30.0</ele></trkpt>
<trkpt lat="-37.8078456" lon="144.9696154"><ele>30.0</ele></trkpt>
<trkpt lat="-37.8077576" lon="144.9699181"><ele>30.0</ele></trkpt>
<trkpt lat="-37.8076696" lon="144.9702208"><ele>30.0</ele></trkpt>
<trkpt lat="-37.8075816" lon="144.9705235"><ele>30.0</ele></trkpt>
<trkpt lat="-37.8076696" lon="144.9702208"><ele>30.0</ele></trkpt>
<trkpt lat="-37.8077576" lon="144.9699181"><ele>30.0</ele></trkpt>
<trkpt lat="-37.8078456" lon="144.9696154"><ele>30.0</ele></trkpt>
<trkpt lat="-37.8079336" lon="144.9693127"><ele>30.0</ele></trkpt>
<trkpt lat="-37.8080215" lon="144.9690100"><ele>30.0</ele></trkpt>
<trkpt lat="-37.8081095" lon="144.9687073"><ele>30.0</ele></trkpt>
<trkpt lat="-37.8083288" lon="144.9688094"><ele>30.0</ele></trkpt>
<trkpt lat="-37.8085480" lon="144.9689115"><ele>30.0</ele></trkpt>
<trkpt lat="-37.8087673" lon="144.9690136"><ele>30.0</ele></trkpt>
<trkpt lat="-37.8089865" lon="144.9691157"><ele>30.0</ele></trkpt>
<trkpt lat="-37.8092058" lon="144.9692179"><ele>30.0</ele></trkpt>
<trkpt lat="-37.8094251" lon="144.9693200"><ele>30.0</ele></trkpt>
<trkpt lat="-37.8096443" lon="144.9694221"><ele>30.0</ele></trkpt>
<trkpt lat="-37.8098636" lon="144.9695242"><ele>30.0</ele></trkpt>
<trkpt lat="-37.8100828" lon="144.9696263"><ele>30.0</ele></trkpt>
<trkpt lat="-37.8099948" lon="144.9699290"><ele>30.0</ele></trkpt>
<trkpt lat="-37.8099068" lon="144.9702317"><ele>30.0</ele></trkpt>
<trkpt lat="-37.8098189" lon="144.9705344"><ele>30.0</ele></trkpt>
<trkpt lat="-37.8097309" lon="144.9708371"><ele>30.0</ele></trkpt>
<trkpt lat="-37.8096429" lon="144.9711398"><ele>30.0</ele></trkpt>
<trkpt lat="-37.8095549" lon="144.9714425"><ele>30.0</ele></trkpt>
<trkpt lat="-37.8096429" lon="144.9711398"><ele>30.0</ele></trkpt>
<trkpt lat="-37.8097309" lon="144.9708371"><ele>30.0</ele></trkpt>
<trkpt lat="-37.8098189" lon="144.9705344"><ele>30.0</ele></trkpt>
<trkpt lat="-37.8099068" lon="144.9702317"><ele>30.0</ele></trkpt>
<trkpt lat="-37.8099948" lon="144.9699290"><ele>30.0</ele></trkpt>
<trkpt lat="-37.8100828" lon="144.9696263"><ele>30.0</ele></trkpt>
<trkpt lat="-37.8103379" lon="144.9697451"><ele>30.0</ele></trkpt>
<trkpt lat="-37.8105930" lon="144.9698639"><ele>30.0</ele></trkpt>
<trkpt lat="-37.8108481" lon="144.9699827"><ele>30.0</ele></trkpt>
<trkpt lat="-37.8111032" lon="144.9701016"><ele>30.0</ele></trkpt>
<trkpt lat="-37.8110152" lon="144.9704043"><ele>30.0</ele></trkpt>
<trkpt lat="-37.8109273" lon="144.9707070"><ele>30.0</ele></trkpt>
<trkpt lat="-37.8108393" lon="144.9710097"><ele>30.0</ele></trkpt>
<trkpt lat="-37.8107513" lon="144.9713124"><ele>30.0</ele></trkpt>
<trkpt lat="-37.8106633" lon="144.9716151"><ele>30.0</ele></trkpt>
<trkpt lat="-37.8105753" lon="144.9719178"><ele>30.0</ele></trkpt>
</trkseg></trk></gpx>