<?xml version="1.0" encoding="UTF-8"?>
<gpx version="1.1" creator="route-planner" xmlns="http://www.topografix.com/GPX/1/1">
  <trk>
    <name>COFFEE run - Melbourne CBD streets</name>
    <trkseg>
      <trkpt lat="-37.814429" lon="144.954813"/>
      <trkpt lat="-37.8142731" lon="144.9548112"/>
      <trkpt lat="-37.8143773" lon="144.9547817"/>
      <trkpt lat="-37.814573" lon="144.9547906"/>
      <trkpt lat="-37.8144947" lon="144.954754"/>
      <trkpt lat="-37.8143982" lon="144.9547093"/>
      <trkpt lat="-37.81434" lon="144.9546842"/>
      <trkpt lat="-37.8145077" lon="144.9547074"/>
      <trkpt lat="-37.8144107" lon="144.9546614"/>
      <trkpt lat="-37.814425" lon="144.9546067"/>
      <trkpt lat="-37.8147231" lon="144.9539391"/>
      <trkpt lat="-37.8146377" lon="144.9538764"/>
      <trkpt lat="-37.8148165" lon="144.9536207"/>
      <trkpt lat="-37.8147241" lon="144.953576"/>
      <trkpt lat="-37.8148375" lon="144.9531819"/>
      <trkpt lat="-37.8150022" lon="144.9529912"/>
      <trkpt lat="-37.8150314" lon="144.9528897"/>
      <trkpt lat="-37.8149348" lon="144.9528434"/>
      <trkpt lat="-37.8149549" lon="144.9527754"/>
      <trkpt lat="-37.8150015" lon="144.9526225"/>
      <trkpt lat="-37.8151232" lon="144.9525633"/>
      <trkpt lat="-37.8151339" lon="144.9525251"/>
      <trkpt lat="-37.815044" lon="144.9524831"/>
      <trkpt lat="-37.8152216" lon="144.9524622"/>
      <trkpt lat="-37.8151794" lon="144.952441"/>
      <trkpt lat="-37.81516" lon="144.9524316"/>
      <trkpt lat="-37.8150722" lon="144.9523906"/>
      <trkpt lat="-37.8149887" lon="144.9523525"/>
      <trkpt lat="-37.81517" lon="144.9523969"/>
      <trkpt lat="-37.8150821" lon="144.9523566"/>
      <trkpt lat="-37.8151805" lon="144.9523608"/>
      <trkpt lat="-37.815144" lon="144.95235"/>
      <trkpt lat="-37.8152043" lon="144.9522786"/>
      <trkpt lat="-37.8151805" lon="144.9523608"/>
      <trkpt lat="-37.81517" lon="144.9523969"/>
      <trkpt lat="-37.81516" lon="144.9524316"/>
      <trkpt lat="-37.8151794" lon="144.952441"/>
      <trkpt lat="-37.8152635" lon="144.9523084"/>
      <trkpt lat="-37.8152216" lon="144.9524622"/>
      <trkpt lat="-37.8152997" lon="144.9523256"/>
      <trkpt lat="-37.815589" lon="144.9526447"/>
      <trkpt lat="-37.8160821" lon="144.9527118"/>
      <trkpt lat="-37.8160219" lon="144.9528507"/>
      <trkpt lat="-37.8160388" lon="144.9528602"/>
      <trkpt lat="-37.8161351" lon="144.9527353"/>
      <trkpt lat="-37.8161189" lon="144.9527917"/>
      <trkpt lat="-37.8161092" lon="144.9528253"/>
      <trkpt lat="-37.816092" lon="144.9528849"/>
      <trkpt lat="-37.8160717" lon="144.9529557"/>
      <trkpt lat="-37.8161742" lon="144.9527532"/>
      <trkpt lat="-37.8161282" lon="144.9529016"/>
      <trkpt lat="-37.816204" lon="144.9527666"/>
      <trkpt lat="-37.816919" lon="144.9532606"/>
      <trkpt lat="-37.8170083" lon="144.9531324"/>
      <trkpt lat="-37.8169666" lon="144.9532824"/>
      <trkpt lat="-37.8170623" lon="144.953157"/>
      <trkpt lat="-37.8170198" lon="144.9533067"/>
      <trkpt lat="-37.8171142" lon="144.9531806"/>
      <trkpt lat="-37.8170536" lon="144.9533221"/>
      <trkpt lat="-37.8171028" lon="144.9533445"/>
      <trkpt lat="-37.8171865" lon="144.9532135"/>
      <trkpt lat="-37.8171439" lon="144.9533633"/>
      <trkpt lat="-37.8172242" lon="144.953232"/>
      <trkpt lat="-37.8171851" lon="144.9533847"/>
      <trkpt lat="-37.8172708" lon="144.9532519"/>
      <trkpt lat="-37.8172931" lon="144.953262"/>
      <trkpt lat="-37.8180223" lon="144.953594"/>
      <trkpt lat="-37.8179698" lon="144.9537592"/>
      <trkpt lat="-37.818086" lon="144.953623"/>
      <trkpt lat="-37.8180478" lon="144.9537967"/>
      <trkpt lat="-37.8181873" lon="144.9536467"/>
      <trkpt lat="-37.8181324" lon="144.953839"/>
      <trkpt lat="-37.8182268" lon="144.9536615"/>
      <trkpt lat="-37.8182019" lon="144.95387"/>
      <trkpt lat="-37.8185218" lon="144.9540185"/>
      <trkpt lat="-37.8187639" lon="144.9541234"/>
      <trkpt lat="-37.8188694" lon="144.9539545"/>
      <trkpt lat="-37.8189378" lon="144.953986"/>
      <trkpt lat="-37.8188811" lon="144.9541785"/>
      <trkpt lat="-37.8190414" lon="144.9540366"/>
      <trkpt lat="-37.8190147" lon="144.9541243"/>
      <trkpt lat="-37.8190035" lon="144.9541607"/>
      <trkpt lat="-37.8189823" lon="144.9542305"/>
      <trkpt lat="-37.8189558" lon="144.9542947"/>
      <trkpt lat="-37.8190146" lon="144.9542438"/>
      <trkpt lat="-37.8190418" lon="144.9542574"/>
      <trkpt lat="-37.8190448" lon="144.9542588"/>
      <trkpt lat="-37.819056" lon="144.95418"/>
      <trkpt lat="-37.8189823" lon="144.9542305"/>
      <trkpt lat="-37.8190146" lon="144.9542438"/>
      <trkpt lat="-37.8190418" lon="144.9542574"/>
      <trkpt lat="-37.8190448" lon="144.9542588"/>
      <trkpt lat="-37.8190989" lon="144.9542829"/>
      <trkpt lat="-37.8190936" lon="144.9542819"/>
      <trkpt lat="-37.8189558" lon="144.9542947"/>
      <trkpt lat="-37.8190788" lon="144.954349"/>
      <trkpt lat="-37.819073" lon="144.954368"/>
      <trkpt lat="-37.8190194" lon="144.9545555"/>
      <trkpt lat="-37.8188414" lon="144.9546793"/>
      <trkpt lat="-37.8189215" lon="144.9548983"/>
      <trkpt lat="-37.8187777" lon="144.9548922"/>
      <trkpt lat="-37.818832" lon="144.955199"/>
      <trkpt lat="-37.8187903" lon="144.9553389"/>
      <trkpt lat="-37.818651" lon="144.9553357"/>
      <trkpt lat="-37.8187785" lon="144.9553786"/>
      <trkpt lat="-37.8186459" lon="144.9553568"/>
      <trkpt lat="-37.8186407" lon="144.9553812"/>
      <trkpt lat="-37.8186139" lon="144.9555503"/>
      <trkpt lat="-37.8186083" lon="144.9555768"/>
      <trkpt lat="-37.8185779" lon="144.9556777"/>
      <trkpt lat="-37.8186397" lon="144.9557782"/>
      <trkpt lat="-37.8183629" lon="144.9564035"/>
      <trkpt lat="-37.8183465" lon="144.95646"/>
      <trkpt lat="-37.8184301" lon="144.9565055"/>
      <trkpt lat="-37.8182573" lon="144.9564983"/>
      <trkpt lat="-37.8183264" lon="144.9565292"/>
      <trkpt lat="-37.8183578" lon="144.9565437"/>
      <trkpt lat="-37.818385" lon="144.9565563"/>
      <trkpt lat="-37.818411" lon="144.9565684"/>
      <trkpt lat="-37.8184817" lon="144.9566011"/>
      <trkpt lat="-37.818351" lon="144.956612"/>
      <trkpt lat="-37.8181932" lon="144.9566315"/>
      <trkpt lat="-37.8182154" lon="144.9566431"/>
      <trkpt lat="-37.8182846" lon="144.9566733"/>
      <trkpt lat="-37.8183159" lon="144.9566879"/>
      <trkpt lat="-37.8183429" lon="144.9567005"/>
      <trkpt lat="-37.8183692" lon="144.9567127"/>
      <trkpt lat="-37.8184396" lon="144.9567454"/>
      <trkpt lat="-37.8182599" lon="144.9567587"/>
      <trkpt lat="-37.8183446" lon="144.956795"/>
      <trkpt lat="-37.8183418" lon="144.9568073"/>
      <trkpt lat="-37.8181878" lon="144.9573396"/>
      <trkpt lat="-37.8180287" lon="144.957898"/>
      <trkpt lat="-37.8179284" lon="144.9578984"/>
      <trkpt lat="-37.8177997" lon="144.9583449"/>
      <trkpt lat="-37.8176366" lon="144.9589069"/>
      <trkpt lat="-37.8176248" lon="144.9589478"/>
      <trkpt lat="-37.8177294" lon="144.9589903"/>
      <trkpt lat="-37.8176143" lon="144.958984"/>
      <trkpt lat="-37.8175594" lon="144.9589812"/>
      <trkpt lat="-37.8176089" lon="144.9590037"/>
      <trkpt lat="-37.8176408" lon="144.9590203"/>
      <trkpt lat="-37.8176674" lon="144.9590341"/>
      <trkpt lat="-37.8177133" lon="144.9590549"/>
      <trkpt lat="-37.8177811" lon="144.9590856"/>
      <trkpt lat="-37.8175918" lon="144.9590668"/>
      <trkpt lat="-37.8175806" lon="144.9591017"/>
      <trkpt lat="-37.817627" lon="144.959113"/>
      <trkpt lat="-37.8176199" lon="144.9591946"/>
      <trkpt lat="-37.8175917" lon="144.9591825"/>
      <trkpt lat="-37.8175385" lon="144.9592452"/>
      <trkpt lat="-37.8175473" lon="144.9592149"/>
      <trkpt lat="-37.817561" lon="144.9591694"/>
      <trkpt lat="-37.8175806" lon="144.9591017"/>
      <trkpt lat="-37.8175918" lon="144.9590668"/>
      <trkpt lat="-37.8176089" lon="144.9590037"/>
      <trkpt lat="-37.8176143" lon="144.958984"/>
      <trkpt lat="-37.8176248" lon="144.9589478"/>
      <trkpt lat="-37.8175125" lon="144.9591464"/>
      <trkpt lat="-37.8174897" lon="144.9591356"/>
      <trkpt lat="-37.8175594" lon="144.9589812"/>
      <trkpt lat="-37.817173" lon="144.9588056"/>
      <trkpt lat="-37.8169361" lon="144.9586979"/>
      <trkpt lat="-37.8167787" lon="144.9586263"/>
      <trkpt lat="-37.816679" lon="144.9587514"/>
      <trkpt lat="-37.8167192" lon="144.9585993"/>
      <trkpt lat="-37.8166389" lon="144.9587324"/>
      <trkpt lat="-37.8166808" lon="144.9585818"/>
      <trkpt lat="-37.8165771" lon="144.9587025"/>
      <trkpt lat="-37.8166152" lon="144.9585528"/>
      <trkpt lat="-37.8165318" lon="144.9586818"/>
      <trkpt lat="-37.8162948" lon="144.9584108"/>
      <trkpt lat="-37.8162131" lon="144.9585459"/>
      <trkpt lat="-37.8159855" lon="144.9582737"/>
      <trkpt lat="-37.8157682" lon="144.9583506"/>
      <trkpt lat="-37.8158129" lon="144.9581911"/>
      <trkpt lat="-37.8157185" lon="144.9583303"/>
      <trkpt lat="-37.8157648" lon="144.958168"/>
      <trkpt lat="-37.8156449" lon="144.9582998"/>
      <trkpt lat="-37.8156926" lon="144.958132"/>
      <trkpt lat="-37.8156182" lon="144.9582887"/>
      <trkpt lat="-37.8156626" lon="144.9581171"/>
      <trkpt lat="-37.8155687" lon="144.9582682"/>
      <trkpt lat="-37.81554" lon="144.9582563"/>
      <trkpt lat="-37.8156128" lon="144.9580923"/>
      <trkpt lat="-37.8155844" lon="144.9580742"/>
      <trkpt lat="-37.8154911" lon="144.9582345"/>
      <trkpt lat="-37.8151106" lon="144.9580661"/>
      <trkpt lat="-37.8147071" lon="144.9578786"/>
      <trkpt lat="-37.8147558" lon="144.95772"/>
      <trkpt lat="-37.8146507" lon="144.9578928"/>
      <trkpt lat="-37.814661" lon="144.9578571"/>
      <trkpt lat="-37.8146843" lon="144.9577761"/>
      <trkpt lat="-37.8146949" lon="144.9577393"/>
      <trkpt lat="-37.8147069" lon="144.9576975"/>
      <trkpt lat="-37.8146338" lon="144.9578446"/>
      <trkpt lat="-37.8147285" lon="144.9576226"/>
      <trkpt lat="-37.8146799" lon="144.957685"/>
      <trkpt lat="-37.8144946" lon="144.9577808"/>
      <trkpt lat="-37.8138047" lon="144.9574646"/>
      <trkpt lat="-37.8138504" lon="144.9573018"/>
      <trkpt lat="-37.8137147" lon="144.9574638"/>
      <trkpt lat="-37.813725" lon="144.9574279"/>
      <trkpt lat="-37.8137433" lon="144.9573643"/>
      <trkpt lat="-37.8137533" lon="144.9573296"/>
      <trkpt lat="-37.8137717" lon="144.9572655"/>
      <trkpt lat="-37.8137944" lon="144.9571866"/>
      <trkpt lat="-37.813701" lon="144.957318"/>
      <trkpt lat="-37.8136573" lon="144.9572853"/>
      <trkpt lat="-37.8138504" lon="144.9573018"/>
      <trkpt lat="-37.8137717" lon="144.9572655"/>
      <trkpt lat="-37.8136757" lon="144.9572213"/>
      <trkpt lat="-37.8136191" lon="144.9571952"/>
      <trkpt lat="-37.8137944" lon="144.9571866"/>
      <trkpt lat="-37.8136994" lon="144.9571388"/>
      <trkpt lat="-37.8137154" lon="144.9570832"/>
      <trkpt lat="-37.8139334" lon="144.9567039"/>
      <trkpt lat="-37.8138386" lon="144.9566549"/>
      <trkpt lat="-37.8140058" lon="144.9564523"/>
      <trkpt lat="-37.8139091" lon="144.9564099"/>
      <trkpt lat="-37.8140978" lon="144.9561312"/>
      <trkpt lat="-37.8140119" lon="144.9560524"/>
      <trkpt lat="-37.8141245" lon="144.9560382"/>
      <trkpt lat="-37.8140286" lon="144.9559949"/>
      <trkpt lat="-37.8140525" lon="144.9559127"/>
      <trkpt lat="-37.8141814" lon="144.9558397"/>
      <trkpt lat="-37.8140872" lon="144.9557933"/>
      <trkpt lat="-37.8142871" lon="144.9554713"/>
      <trkpt lat="-37.8143019" lon="144.9554218"/>
      <trkpt lat="-37.8142291" lon="144.9553033"/>
      <trkpt lat="-37.8143524" lon="144.9552531"/>
      <trkpt lat="-37.8142563" lon="144.9552093"/>
      <trkpt lat="-37.8144102" lon="144.9550558"/>
      <trkpt lat="-37.8144261" lon="144.9549977"/>
      <trkpt lat="-37.8143282" lon="144.9549542"/>
      <trkpt lat="-37.8145328" lon="144.9549349"/>
      <trkpt lat="-37.8144545" lon="144.9548937"/>
      <trkpt lat="-37.8143577" lon="144.9548499"/>
      <trkpt lat="-37.8143014" lon="144.9548242"/>
      <trkpt lat="-37.814429" lon="144.954813"/>
      <trkpt lat="-37.8145077" lon="144.9547074"/>
      <trkpt lat="-37.8144947" lon="144.954754"/>
      <trkpt lat="-37.8144545" lon="144.9548937"/>
      <trkpt lat="-37.814573" lon="144.9547906"/>
      <trkpt lat="-37.8145328" lon="144.9549349"/>
      <trkpt lat="-37.8146151" lon="144.9548097"/>
      <trkpt lat="-37.8148822" lon="144.9549312"/>
      <trkpt lat="-37.8153171" lon="144.9552933"/>
      <trkpt lat="-37.8154009" lon="144.9551739"/>
      <trkpt lat="-37.815362" lon="144.9553138"/>
      <trkpt lat="-37.8154449" lon="144.9551335"/>
      <trkpt lat="-37.8154294" lon="144.9551873"/>
      <trkpt lat="-37.8153892" lon="144.9553272"/>
      <trkpt lat="-37.8154749" lon="144.9552079"/>
      <trkpt lat="-37.8154365" lon="144.9553494"/>
      <trkpt lat="-37.8155059" lon="144.9552223"/>
      <trkpt lat="-37.815809" lon="144.9555221"/>
      <trkpt lat="-37.8158728" lon="144.9553924"/>
      <trkpt lat="-37.8158277" lon="144.955531"/>
      <trkpt lat="-37.8162352" lon="144.9557205"/>
      <trkpt lat="-37.8163056" lon="144.9555899"/>
      <trkpt lat="-37.8162646" lon="144.9557341"/>
      <trkpt lat="-37.8163506" lon="144.9556104"/>
      <trkpt lat="-37.8163088" lon="144.9557547"/>
      <trkpt lat="-37.816386" lon="144.9556279"/>
      <trkpt lat="-37.8163444" lon="144.9557712"/>
      <trkpt lat="-37.8164147" lon="144.9556422"/>
      <trkpt lat="-37.8163732" lon="144.9557846"/>
      <trkpt lat="-37.8164534" lon="144.9556614"/>
      <trkpt lat="-37.8164124" lon="144.9558028"/>
      <trkpt lat="-37.8165259" lon="144.955695"/>
      <trkpt lat="-37.8164835" lon="144.9558359"/>
      <trkpt lat="-37.816562" lon="144.9557118"/>
      <trkpt lat="-37.8172499" lon="144.9561924"/>
      <trkpt lat="-37.8173233" lon="144.956066"/>
      <trkpt lat="-37.8172931" lon="144.9562125"/>
      <trkpt lat="-37.8173936" lon="144.9560988"/>
      <trkpt lat="-37.8173523" lon="144.9562416"/>
      <trkpt lat="-37.8174009" lon="144.9562632"/>
      <trkpt lat="-37.8174697" lon="144.9561322"/>
      <trkpt lat="-37.8175077" lon="144.9561498"/>
      <trkpt lat="-37.8178755" lon="144.9563202"/>
      <trkpt lat="-37.8178595" lon="144.9563752"/>
      <trkpt lat="-37.8178338" lon="144.9564637"/>
      <trkpt lat="-37.8181932" lon="144.9566315"/>
      <trkpt lat="-37.8182573" lon="144.9564983"/>
      <trkpt lat="-37.8182154" lon="144.9566431"/>
      <trkpt lat="-37.8183465" lon="144.95646"/>
      <trkpt lat="-37.8183264" lon="144.9565292"/>
      <trkpt lat="-37.8182846" lon="144.9566733"/>
      <trkpt lat="-37.8183159" lon="144.9566879"/>
      <trkpt lat="-37.8183429" lon="144.9567005"/>
      <trkpt lat="-37.818351" lon="144.956612"/>
      <trkpt lat="-37.8181932" lon="144.9566315"/>
      <trkpt lat="-37.8182154" lon="144.9566431"/>
      <trkpt lat="-37.8182846" lon="144.9566733"/>
      <trkpt lat="-37.8183159" lon="144.9566879"/>
      <trkpt lat="-37.8183429" lon="144.9567005"/>
      <trkpt lat="-37.8183692" lon="144.9567127"/>
      <trkpt lat="-37.8184396" lon="144.9567454"/>
      <trkpt lat="-37.8182599" lon="144.9567587"/>
      <trkpt lat="-37.8183446" lon="144.956795"/>
      <trkpt lat="-37.8183418" lon="144.9568073"/>
      <trkpt lat="-37.8181878" lon="144.9573396"/>
      <trkpt lat="-37.8180287" lon="144.957898"/>
      <trkpt lat="-37.8179284" lon="144.9578984"/>
      <trkpt lat="-37.8177997" lon="144.9583449"/>
      <trkpt lat="-37.8176366" lon="144.9589069"/>
      <trkpt lat="-37.8176248" lon="144.9589478"/>
      <trkpt lat="-37.8177294" lon="144.9589903"/>
      <trkpt lat="-37.8176143" lon="144.958984"/>
      <trkpt lat="-37.8175594" lon="144.9589812"/>
      <trkpt lat="-37.8176089" lon="144.9590037"/>
      <trkpt lat="-37.8176408" lon="144.9590203"/>
      <trkpt lat="-37.8176674" lon="144.9590341"/>
      <trkpt lat="-37.8177133" lon="144.9590549"/>
      <trkpt lat="-37.8177811" lon="144.9590856"/>
      <trkpt lat="-37.8175918" lon="144.9590668"/>
      <trkpt lat="-37.8176962" lon="144.9591144"/>
      <trkpt lat="-37.8175806" lon="144.9591017"/>
      <trkpt lat="-37.8176857" lon="144.9591511"/>
      <trkpt lat="-37.8174897" lon="144.9591356"/>
      <trkpt lat="-37.8175125" lon="144.9591464"/>
      <trkpt lat="-37.817561" lon="144.9591694"/>
      <trkpt lat="-37.8175917" lon="144.9591825"/>
      <trkpt lat="-37.8176199" lon="144.9591946"/>
      <trkpt lat="-37.8176672" lon="144.9592154"/>
      <trkpt lat="-37.8177355" lon="144.9592441"/>
      <trkpt lat="-37.8175473" lon="144.9592149"/>
      <trkpt lat="-37.8175385" lon="144.9592452"/>
      <trkpt lat="-37.8176454" lon="144.9592916"/>
      <trkpt lat="-37.8176327" lon="144.9593343"/>
      <trkpt lat="-37.8174073" lon="144.9596939"/>
      <trkpt lat="-37.8173195" lon="144.9599997"/>
      <trkpt lat="-37.8173106" lon="144.9600309"/>
      <trkpt lat="-37.8174134" lon="144.9600777"/>
      <trkpt lat="-37.8173699" lon="144.9602249"/>
      <trkpt lat="-37.8172609" lon="144.9602021"/>
      <trkpt lat="-37.8173535" lon="144.9602806"/>
      <trkpt lat="-37.8172288" lon="144.9603126"/>
      <trkpt lat="-37.8171888" lon="144.9604505"/>
      <trkpt lat="-37.8171331" lon="144.9606427"/>
      <trkpt lat="-37.8169971" lon="144.9611072"/>
      <trkpt lat="-37.8169162" lon="144.9613867"/>
      <trkpt lat="-37.8169075" lon="144.9614164"/>
      <trkpt lat="-37.8170051" lon="144.9614618"/>
      <trkpt lat="-37.816841" lon="144.9614875"/>
      <trkpt lat="-37.8168807" lon="144.9615079"/>
      <trkpt lat="-37.816913" lon="144.9615223"/>
      <trkpt lat="-37.8169407" lon="144.9615346"/>
      <trkpt lat="-37.8169787" lon="144.9615513"/>
      <trkpt lat="-37.8170501" lon="144.9615839"/>
      <trkpt lat="-37.8167544" lon="144.9615986"/>
      <trkpt lat="-37.816906" lon="144.961598"/>
      <trkpt lat="-37.8168856" lon="144.9616633"/>
      <trkpt lat="-37.8168281" lon="144.9617083"/>
      <trkpt lat="-37.8168447" lon="144.9616448"/>
      <trkpt lat="-37.8168807" lon="144.9615079"/>
      <trkpt lat="-37.8168021" lon="144.9616241"/>
      <trkpt lat="-37.816841" lon="144.9614875"/>
      <trkpt lat="-37.8167544" lon="144.9615986"/>
      <trkpt lat="-37.8166076" lon="144.9615312"/>
      <trkpt lat="-37.816656" lon="144.9613975"/>
      <trkpt lat="-37.8164896" lon="144.961477"/>
      <trkpt lat="-37.8165318" lon="144.9613371"/>
      <trkpt lat="-37.8162532" lon="144.9612015"/>
      <trkpt lat="-37.816117" lon="144.9613059"/>
      <trkpt lat="-37.8161053" lon="144.9611356"/>
      <trkpt lat="-37.8159713" lon="144.9612418"/>
      <trkpt lat="-37.8160103" lon="144.9610938"/>
      <trkpt lat="-37.8159238" lon="144.9612237"/>
      <trkpt lat="-37.815965" lon="144.9610771"/>
      <trkpt lat="-37.8158867" lon="144.9612079"/>
      <trkpt lat="-37.815932" lon="144.9610606"/>
      <trkpt lat="-37.8157848" lon="144.9611627"/>
      <trkpt lat="-37.8152743" lon="144.9607446"/>
      <trkpt lat="-37.8151728" lon="144.9608632"/>
      <trkpt lat="-37.8150466" lon="144.960811"/>
      <trkpt lat="-37.8150872" lon="144.960665"/>
      <trkpt lat="-37.814968" lon="144.9607785"/>
      <trkpt lat="-37.8150139" lon="144.9606319"/>
      <trkpt lat="-37.814944" lon="144.960767"/>
      <trkpt lat="-37.8149854" lon="144.9606211"/>
      <trkpt lat="-37.814921" lon="144.960756"/>
      <trkpt lat="-37.8149631" lon="144.9606109"/>
      <trkpt lat="-37.8148876" lon="144.9607395"/>
      <trkpt lat="-37.8149261" lon="144.9605951"/>
      <trkpt lat="-37.8148419" lon="144.9607171"/>
      <trkpt lat="-37.8148782" lon="144.9605755"/>
      <trkpt lat="-37.8147822" lon="144.9606853"/>
      <trkpt lat="-37.8146931" lon="144.9606436"/>
      <trkpt lat="-37.8147342" lon="144.9605097"/>
      <trkpt lat="-37.8146257" lon="144.960615"/>
      <trkpt lat="-37.814528" lon="144.9604148"/>
      <trkpt lat="-37.8143957" lon="144.9603538"/>
      <trkpt lat="-37.8140027" lon="144.9603383"/>
      <trkpt lat="-37.8140505" lon="144.9601949"/>
      <trkpt lat="-37.8139351" lon="144.9603792"/>
      <trkpt lat="-37.8139532" lon="144.9603165"/>
      <trkpt lat="-37.8139955" lon="144.9601695"/>
      <trkpt lat="-37.813913" lon="144.9603008"/>
      <trkpt lat="-37.8139597" lon="144.9601584"/>
      <trkpt lat="-37.8137457" lon="144.960217"/>
      <trkpt lat="-37.813465" lon="144.9600851"/>
      <trkpt lat="-37.8133016" lon="144.959865"/>
      <trkpt lat="-37.81309" lon="144.959914"/>
      <trkpt lat="-37.8131272" lon="144.9597872"/>
      <trkpt lat="-37.8130001" lon="144.9599442"/>
      <trkpt lat="-37.8130167" lon="144.9598849"/>
      <trkpt lat="-37.8130553" lon="144.9597517"/>
      <trkpt lat="-37.812983" lon="144.959791"/>
      <trkpt lat="-37.8130553" lon="144.9597517"/>
      <trkpt lat="-37.8130167" lon="144.9598849"/>
      <trkpt lat="-37.8130001" lon="144.9599442"/>
      <trkpt lat="-37.8131272" lon="144.9597872"/>
      <trkpt lat="-37.81309" lon="144.959914"/>
      <trkpt lat="-37.8133016" lon="144.959865"/>
      <trkpt lat="-37.813465" lon="144.9600851"/>
      <trkpt lat="-37.8137457" lon="144.960217"/>
      <trkpt lat="-37.8139597" lon="144.9601584"/>
      <trkpt lat="-37.813913" lon="144.9603008"/>
      <trkpt lat="-37.8139532" lon="144.9603165"/>
      <trkpt lat="-37.8139351" lon="144.9603792"/>
      <trkpt lat="-37.813968" lon="144.960245"/>
      <trkpt lat="-37.813913" lon="144.9603008"/>
      <trkpt lat="-37.8139532" lon="144.9603165"/>
      <trkpt lat="-37.8140027" lon="144.9603383"/>
      <trkpt lat="-37.8139351" lon="144.9603792"/>
      <trkpt lat="-37.8138766" lon="144.9605827"/>
      <trkpt lat="-37.8138046" lon="144.9608329"/>
      <trkpt lat="-37.8137438" lon="144.961044"/>
      <trkpt lat="-37.8136835" lon="144.9612547"/>
      <trkpt lat="-37.8136264" lon="144.9614519"/>
      <trkpt lat="-37.813589" lon="144.9615818"/>
      <trkpt lat="-37.8135621" lon="144.9616752"/>
      <trkpt lat="-37.8135261" lon="144.9618004"/>
      <trkpt lat="-37.8134631" lon="144.9620195"/>
      <trkpt lat="-37.8134274" lon="144.9621393"/>
      <trkpt lat="-37.8133728" lon="144.9623345"/>
      <trkpt lat="-37.8133038" lon="144.9625745"/>
      <trkpt lat="-37.8131751" lon="144.9625966"/>
      <trkpt lat="-37.8132329" lon="144.9626233"/>
      <trkpt lat="-37.8132827" lon="144.9626461"/>
      <trkpt lat="-37.813342" lon="144.9626728"/>
      <trkpt lat="-37.8132661" lon="144.9627038"/>
      <trkpt lat="-37.813252" lon="144.962709"/>
      <trkpt lat="-37.8133038" lon="144.9625745"/>
      <trkpt lat="-37.8132827" lon="144.9626461"/>
      <trkpt lat="-37.8132661" lon="144.9627038"/>
      <trkpt lat="-37.8132576" lon="144.9627331"/>
      <trkpt lat="-37.813342" lon="144.9626728"/>
      <trkpt lat="-37.8133019" lon="144.9628148"/>
      <trkpt lat="-37.8140877" lon="144.9631767"/>
      <trkpt lat="-37.8141706" lon="144.9630546"/>
      <trkpt lat="-37.8141318" lon="144.963197"/>
      <trkpt lat="-37.8142124" lon="144.9630732"/>
      <trkpt lat="-37.8141713" lon="144.9632146"/>
      <trkpt lat="-37.8142523" lon="144.9630913"/>
      <trkpt lat="-37.8142118" lon="144.9632348"/>
      <trkpt lat="-37.8142786" lon="144.9631034"/>
      <trkpt lat="-37.8142247" lon="144.9632407"/>
      <trkpt lat="-37.814238" lon="144.9632468"/>
      <trkpt lat="-37.8143166" lon="144.9631217"/>
      <trkpt lat="-37.8142758" lon="144.9632632"/>
      <trkpt lat="-37.8143646" lon="144.9631439"/>
      <trkpt lat="-37.8143701" lon="144.9631467"/>
      <trkpt lat="-37.8143262" lon="144.9632864"/>
      <trkpt lat="-37.8143925" lon="144.963317"/>
      <trkpt lat="-37.8145864" lon="144.9632557"/>
      <trkpt lat="-37.81482" lon="144.9635139"/>
      <trkpt lat="-37.8150525" lon="144.9634737"/>
      <trkpt lat="-37.8151402" lon="144.9635087"/>
      <trkpt lat="-37.8151811" lon="144.963525"/>
      <trkpt lat="-37.8151495" lon="144.9636629"/>
      <trkpt lat="-37.8152438" lon="144.9635519"/>
      <trkpt lat="-37.815203" lon="144.9636915"/>
      <trkpt lat="-37.815294" lon="144.963572"/>
      <trkpt lat="-37.8152555" lon="144.9637145"/>
      <trkpt lat="-37.8160617" lon="144.9640857"/>
      <trkpt lat="-37.8161321" lon="144.9639582"/>
      <trkpt lat="-37.8160919" lon="144.9640996"/>
      <trkpt lat="-37.8161821" lon="144.963919"/>
      <trkpt lat="-37.8161667" lon="144.9639741"/>
      <trkpt lat="-37.816155" lon="144.9640163"/>
      <trkpt lat="-37.816145" lon="144.964051"/>
      <trkpt lat="-37.8161258" lon="144.9641152"/>
      <trkpt lat="-37.8161117" lon="144.9641637"/>
      <trkpt lat="-37.8161594" lon="144.9641306"/>
      <trkpt lat="-37.8161879" lon="144.9641422"/>
      <trkpt lat="-37.816194" lon="144.964056"/>
      <trkpt lat="-37.816145" lon="144.964051"/>
      <trkpt lat="-37.816155" lon="144.9640163"/>
      <trkpt lat="-37.8163262" lon="144.9640475"/>
      <trkpt lat="-37.8162767" lon="144.9640233"/>
      <trkpt lat="-37.81623" lon="144.9640015"/>
      <trkpt lat="-37.8162034" lon="144.9639882"/>
      <trkpt lat="-37.8161667" lon="144.9639741"/>
      <trkpt lat="-37.8161321" lon="144.9639582"/>
      <trkpt lat="-37.8162923" lon="144.9639684"/>
      <trkpt lat="-37.8161821" lon="144.963919"/>
      <trkpt lat="-37.816199" lon="144.9638587"/>
      <trkpt lat="-37.8163368" lon="144.9633671"/>
      <trkpt lat="-37.8164649" lon="144.9633698"/>
      <trkpt lat="-37.8163676" lon="144.9633008"/>
      <trkpt lat="-37.8164671" lon="144.9633205"/>
      <trkpt lat="-37.8164418" lon="144.9630578"/>
      <trkpt lat="-37.8168998" lon="144.9618199"/>
      <trkpt lat="-37.8169188" lon="144.9617551"/>
      <trkpt lat="-37.8168281" lon="144.9617083"/>
      <trkpt lat="-37.8170102" lon="144.9617208"/>
      <trkpt lat="-37.8169396" lon="144.961687"/>
      <trkpt lat="-37.8169119" lon="144.9616769"/>
      <trkpt lat="-37.8168856" lon="144.9616633"/>
      <trkpt lat="-37.8168447" lon="144.9616448"/>
      <trkpt lat="-37.8168021" lon="144.9616241"/>
      <trkpt lat="-37.816906" lon="144.961598"/>
      <trkpt lat="-37.8167544" lon="144.9615986"/>
      <trkpt lat="-37.8168021" lon="144.9616241"/>
      <trkpt lat="-37.8168447" lon="144.9616448"/>
      <trkpt lat="-37.8168856" lon="144.9616633"/>
      <trkpt lat="-37.8169119" lon="144.9616769"/>
      <trkpt lat="-37.8169396" lon="144.961687"/>
      <trkpt lat="-37.8170102" lon="144.9617208"/>
      <trkpt lat="-37.8168281" lon="144.9617083"/>
      <trkpt lat="-37.8169188" lon="144.9617551"/>
      <trkpt lat="-37.8168998" lon="144.9618199"/>
      <trkpt lat="-37.8164418" lon="144.9630578"/>
      <trkpt lat="-37.8164671" lon="144.9633205"/>
      <trkpt lat="-37.8163676" lon="144.9633008"/>
      <trkpt lat="-37.8164649" lon="144.9633698"/>
      <trkpt lat="-37.8163368" lon="144.9633671"/>
      <trkpt lat="-37.816199" lon="144.9638587"/>
      <trkpt lat="-37.8161821" lon="144.963919"/>
      <trkpt lat="-37.8162923" lon="144.9639684"/>
      <trkpt lat="-37.8161321" lon="144.9639582"/>
      <trkpt lat="-37.8161667" lon="144.9639741"/>
      <trkpt lat="-37.8162034" lon="144.9639882"/>
      <trkpt lat="-37.81623" lon="144.9640015"/>
      <trkpt lat="-37.8162767" lon="144.9640233"/>
      <trkpt lat="-37.8163262" lon="144.9640475"/>
      <trkpt lat="-37.816155" lon="144.9640163"/>
      <trkpt lat="-37.816145" lon="144.964051"/>
      <trkpt lat="-37.816194" lon="144.964056"/>
      <trkpt lat="-37.8161879" lon="144.9641422"/>
      <trkpt lat="-37.8161594" lon="144.9641306"/>
      <trkpt lat="-37.8161117" lon="144.9641637"/>
      <trkpt lat="-37.8161258" lon="144.9641152"/>
      <trkpt lat="-37.816145" lon="144.964051"/>
      <trkpt lat="-37.816155" lon="144.9640163"/>
      <trkpt lat="-37.8161667" lon="144.9639741"/>
      <trkpt lat="-37.8161821" lon="144.963919"/>
      <trkpt lat="-37.8160919" lon="144.9640996"/>
      <trkpt lat="-37.8161321" lon="144.9639582"/>
      <trkpt lat="-37.8160617" lon="144.9640857"/>
      <trkpt lat="-37.8152555" lon="144.9637145"/>
      <trkpt lat="-37.815294" lon="144.963572"/>
      <trkpt lat="-37.815203" lon="144.9636915"/>
      <trkpt lat="-37.8152438" lon="144.9635519"/>
      <trkpt lat="-37.8151495" lon="144.9636629"/>
      <trkpt lat="-37.8151811" lon="144.963525"/>
      <trkpt lat="-37.8151402" lon="144.9635087"/>
      <trkpt lat="-37.8150525" lon="144.9634737"/>
      <trkpt lat="-37.81482" lon="144.9635139"/>
      <trkpt lat="-37.8145864" lon="144.9632557"/>
      <trkpt lat="-37.8143925" lon="144.963317"/>
      <trkpt lat="-37.8143262" lon="144.9632864"/>
      <trkpt lat="-37.8143701" lon="144.9631467"/>
      <trkpt lat="-37.8143646" lon="144.9631439"/>
      <trkpt lat="-37.8142758" lon="144.9632632"/>
      <trkpt lat="-37.8143166" lon="144.9631217"/>
      <trkpt lat="-37.814238" lon="144.9632468"/>
      <trkpt lat="-37.8142247" lon="144.9632407"/>
      <trkpt lat="-37.8142786" lon="144.9631034"/>
      <trkpt lat="-37.8142118" lon="144.9632348"/>
      <trkpt lat="-37.8142523" lon="144.9630913"/>
      <trkpt lat="-37.8141713" lon="144.9632146"/>
      <trkpt lat="-37.8142124" lon="144.9630732"/>
      <trkpt lat="-37.8141318" lon="144.963197"/>
      <trkpt lat="-37.8141706" lon="144.9630546"/>
      <trkpt lat="-37.8140877" lon="144.9631767"/>
      <trkpt lat="-37.8133019" lon="144.9628148"/>
      <trkpt lat="-37.813342" lon="144.9626728"/>
      <trkpt lat="-37.8132249" lon="144.9628469"/>
      <trkpt lat="-37.8132429" lon="144.9627844"/>
      <trkpt lat="-37.8132576" lon="144.9627331"/>
      <trkpt lat="-37.8132661" lon="144.9627038"/>
      <trkpt lat="-37.8132827" lon="144.9626461"/>
      <trkpt lat="-37.8133038" lon="144.9625745"/>
      <trkpt lat="-37.8131941" lon="144.9627652"/>
      <trkpt lat="-37.8132329" lon="144.9626233"/>
      <trkpt lat="-37.8131751" lon="144.9625966"/>
      <trkpt lat="-37.8130868" lon="144.9625559"/>
      <trkpt lat="-37.812899" lon="144.9626293"/>
      <trkpt lat="-37.812812" lon="144.9625892"/>
      <trkpt lat="-37.8128521" lon="144.9624476"/>
      <trkpt lat="-37.8127555" lon="144.962403"/>
      <trkpt lat="-37.8124541" lon="144.9624244"/>
      <trkpt lat="-37.8123737" lon="144.9623874"/>
      <trkpt lat="-37.8124133" lon="144.9622451"/>
      <trkpt lat="-37.8124057" lon="144.9622416"/>
      <trkpt lat="-37.8122832" lon="144.9624112"/>
      <trkpt lat="-37.812301" lon="144.9623539"/>
      <trkpt lat="-37.8123177" lon="144.9622963"/>
      <trkpt lat="-37.8123258" lon="144.9622684"/>
      <trkpt lat="-37.8123421" lon="144.9622123"/>
      <trkpt lat="-37.8123619" lon="144.9621441"/>
      <trkpt lat="-37.8122652" lon="144.9621012"/>
      <trkpt lat="-37.812266" lon="144.962258"/>
      <trkpt lat="-37.8123619" lon="144.9621441"/>
      <trkpt lat="-37.8123421" lon="144.9622123"/>
      <trkpt lat="-37.8123258" lon="144.9622684"/>
      <trkpt lat="-37.8123177" lon="144.9622963"/>
      <trkpt lat="-37.812301" lon="144.9623539"/>
      <trkpt lat="-37.8122832" lon="144.9624112"/>
      <trkpt lat="-37.8124057" lon="144.9622416"/>
      <trkpt lat="-37.8124133" lon="144.9622451"/>
      <trkpt lat="-37.8123737" lon="144.9623874"/>
      <trkpt lat="-37.8124541" lon="144.9624244"/>
      <trkpt lat="-37.8127555" lon="144.962403"/>
      <trkpt lat="-37.8128521" lon="144.9624476"/>
      <trkpt lat="-37.812812" lon="144.9625892"/>
      <trkpt lat="-37.812899" lon="144.9626293"/>
      <trkpt lat="-37.8130868" lon="144.9625559"/>
      <trkpt lat="-37.8131751" lon="144.9625966"/>
      <trkpt lat="-37.8132329" lon="144.9626233"/>
      <trkpt lat="-37.8131941" lon="144.9627652"/>
      <trkpt lat="-37.8132429" lon="144.9627844"/>
      <trkpt lat="-37.8132249" lon="144.9628469"/>
      <trkpt lat="-37.813252" lon="144.962709"/>
      <trkpt lat="-37.8132576" lon="144.9627331"/>
      <trkpt lat="-37.8131941" lon="144.9627652"/>
      <trkpt lat="-37.8132429" lon="144.9627844"/>
      <trkpt lat="-37.8133019" lon="144.9628148"/>
      <trkpt lat="-37.8132249" lon="144.9628469"/>
      <trkpt lat="-37.8131479" lon="144.9631103"/>
      <trkpt lat="-37.8130902" lon="144.9632985"/>
      <trkpt lat="-37.8129446" lon="144.9637811"/>
      <trkpt lat="-37.8128973" lon="144.9639577"/>
      <trkpt lat="-37.8128772" lon="144.9640257"/>
      <trkpt lat="-37.812821" lon="144.9642242"/>
      <trkpt lat="-37.8127675" lon="144.9644018"/>
      <trkpt lat="-37.8127131" lon="144.9645854"/>
      <trkpt lat="-37.8126697" lon="144.9647381"/>
      <trkpt lat="-37.8126553" lon="144.9647888"/>
      <trkpt lat="-37.812578" lon="144.9650481"/>
      <trkpt lat="-37.8125677" lon="144.9650842"/>
      <trkpt lat="-37.8125445" lon="144.9651651"/>
      <trkpt lat="-37.8124865" lon="144.9651589"/>
      <trkpt lat="-37.812535" lon="144.965181"/>
      <trkpt lat="-37.812578" lon="144.9650481"/>
      <trkpt lat="-37.8125677" lon="144.9650842"/>
      <trkpt lat="-37.8125445" lon="144.9651651"/>
      <trkpt lat="-37.812539" lon="144.9651841"/>
      <trkpt lat="-37.8125883" lon="144.9652068"/>
      <trkpt lat="-37.8132499" lon="144.9655092"/>
      <trkpt lat="-37.8134198" lon="144.9655869"/>
      <trkpt lat="-37.8135099" lon="144.9656257"/>
      <trkpt lat="-37.8135238" lon="144.965632"/>
      <trkpt lat="-37.8135375" lon="144.9656383"/>
      <trkpt lat="-37.8136205" lon="144.965679"/>
      <trkpt lat="-37.8137786" lon="144.9657508"/>
      <trkpt lat="-37.8144547" lon="144.9660614"/>
      <trkpt lat="-37.8145043" lon="144.9660841"/>
      <trkpt lat="-37.8145573" lon="144.9661083"/>
      <trkpt lat="-37.8148797" lon="144.9662658"/>
      <trkpt lat="-37.8153801" lon="144.9664959"/>
      <trkpt lat="-37.815464" lon="144.9663699"/>
      <trkpt lat="-37.8154294" lon="144.966502"/>
      <trkpt lat="-37.8154255" lon="144.9665171"/>
      <trkpt lat="-37.8154213" lon="144.9665332"/>
      <trkpt lat="-37.8154155" lon="144.9665554"/>
      <trkpt lat="-37.8153902" lon="144.9666519"/>
      <trkpt lat="-37.815459" lon="144.9665325"/>
      <trkpt lat="-37.815476" lon="144.966536"/>
      <trkpt lat="-37.8154213" lon="144.9665332"/>
      <trkpt lat="-37.815459" lon="144.9665325"/>
      <trkpt lat="-37.8154255" lon="144.9665171"/>
      <trkpt lat="-37.8153801" lon="144.9664959"/>
      <trkpt lat="-37.8154294" lon="144.966502"/>
      <trkpt lat="-37.8155965" lon="144.9664301"/>
      <trkpt lat="-37.815464" lon="144.9663699"/>
      <trkpt lat="-37.8154708" lon="144.966347"/>
      <trkpt lat="-37.8157743" lon="144.9658185"/>
      <trkpt lat="-37.8156402" lon="144.9657767"/>
      <trkpt lat="-37.8156437" lon="144.9657609"/>
      <trkpt lat="-37.8157825" lon="144.9657889"/>
      <trkpt lat="-37.8158069" lon="144.9656207"/>
      <trkpt lat="-37.815903" lon="144.9652942"/>
      <trkpt lat="-37.8159249" lon="144.9652196"/>
      <trkpt lat="-37.8158187" lon="144.9651702"/>
      <trkpt lat="-37.8158443" lon="144.9650856"/>
      <trkpt lat="-37.8162006" lon="144.964282"/>
      <trkpt lat="-37.816221" lon="144.9642127"/>
      <trkpt lat="-37.8161117" lon="144.9641637"/>
      <trkpt lat="-37.816284" lon="144.964188"/>
      <trkpt lat="-37.8162349" lon="144.9641656"/>
      <trkpt lat="-37.8161879" lon="144.9641422"/>
      <trkpt lat="-37.8161594" lon="144.9641306"/>
      <trkpt lat="-37.8161258" lon="144.9641152"/>
      <trkpt lat="-37.8160919" lon="144.9640996"/>
      <trkpt lat="-37.8160617" lon="144.9640857"/>
      <trkpt lat="-37.8162541" lon="144.9641002"/>
      <trkpt lat="-37.8162644" lon="144.964065"/>
      <trkpt lat="-37.816194" lon="144.964056"/>
      <trkpt lat="-37.8162644" lon="144.964065"/>
      <trkpt lat="-37.8162541" lon="144.9641002"/>
      <trkpt lat="-37.8160617" lon="144.9640857"/>
      <trkpt lat="-37.8160919" lon="144.9640996"/>
      <trkpt lat="-37.8161258" lon="144.9641152"/>
      <trkpt lat="-37.8161594" lon="144.9641306"/>
      <trkpt lat="-37.8161879" lon="144.9641422"/>
      <trkpt lat="-37.8162349" lon="144.9641656"/>
      <trkpt lat="-37.816284" lon="144.964188"/>
      <trkpt lat="-37.8161117" lon="144.9641637"/>
      <trkpt lat="-37.816221" lon="144.9642127"/>
      <trkpt lat="-37.8162006" lon="144.964282"/>
      <trkpt lat="-37.8158443" lon="144.9650856"/>
      <trkpt lat="-37.8158187" lon="144.9651702"/>
      <trkpt lat="-37.8159249" lon="144.9652196"/>
      <trkpt lat="-37.815903" lon="144.9652942"/>
      <trkpt lat="-37.8158069" lon="144.9656207"/>
      <trkpt lat="-37.8157825" lon="144.9657889"/>
      <trkpt lat="-37.8156437" lon="144.9657609"/>
      <trkpt lat="-37.8156402" lon="144.9657767"/>
      <trkpt lat="-37.8157743" lon="144.9658185"/>
      <trkpt lat="-37.8154708" lon="144.966347"/>
      <trkpt lat="-37.815464" lon="144.9663699"/>
      <trkpt lat="-37.8155965" lon="144.9664301"/>
      <trkpt lat="-37.8154294" lon="144.966502"/>
      <trkpt lat="-37.8153801" lon="144.9664959"/>
      <trkpt lat="-37.8154255" lon="144.9665171"/>
      <trkpt lat="-37.815459" lon="144.9665325"/>
      <trkpt lat="-37.8154213" lon="144.9665332"/>
      <trkpt lat="-37.815476" lon="144.966536"/>
      <trkpt lat="-37.815459" lon="144.9665325"/>
      <trkpt lat="-37.8153902" lon="144.9666519"/>
      <trkpt lat="-37.8154155" lon="144.9665554"/>
      <trkpt lat="-37.8154213" lon="144.9665332"/>
      <trkpt lat="-37.8154255" lon="144.9665171"/>
      <trkpt lat="-37.8154294" lon="144.966502"/>
      <trkpt lat="-37.815464" lon="144.9663699"/>
      <trkpt lat="-37.8153801" lon="144.9664959"/>
      <trkpt lat="-37.8148797" lon="144.9662658"/>
      <trkpt lat="-37.8145573" lon="144.9661083"/>
      <trkpt lat="-37.8145043" lon="144.9660841"/>
      <trkpt lat="-37.8144547" lon="144.9660614"/>
      <trkpt lat="-37.8137786" lon="144.9657508"/>
      <trkpt lat="-37.8136205" lon="144.965679"/>
      <trkpt lat="-37.8135375" lon="144.9656383"/>
      <trkpt lat="-37.8135238" lon="144.965632"/>
      <trkpt lat="-37.8135099" lon="144.9656257"/>
      <trkpt lat="-37.8134198" lon="144.9655869"/>
      <trkpt lat="-37.8132499" lon="144.9655092"/>
      <trkpt lat="-37.8125883" lon="144.9652068"/>
      <trkpt lat="-37.812497" lon="144.9653309"/>
      <trkpt lat="-37.8125339" lon="144.9652019"/>
      <trkpt lat="-37.812539" lon="144.9651841"/>
      <trkpt lat="-37.8125445" lon="144.9651651"/>
      <trkpt lat="-37.8125677" lon="144.9650842"/>
      <trkpt lat="-37.812578" lon="144.9650481"/>
      <trkpt lat="-37.8124865" lon="144.9651589"/>
      <trkpt lat="-37.8117127" lon="144.9648032"/>
      <trkpt lat="-37.8116762" lon="144.9647865"/>
      <trkpt lat="-37.8115662" lon="144.9648854"/>
      <trkpt lat="-37.8116025" lon="144.9647737"/>
      <trkpt lat="-37.8116084" lon="144.9647555"/>
      <trkpt lat="-37.8116138" lon="144.9647388"/>
      <trkpt lat="-37.8116507" lon="144.9646253"/>
      <trkpt lat="-37.811549" lon="144.964727"/>
      <trkpt lat="-37.8116507" lon="144.9646253"/>
      <trkpt lat="-37.8116138" lon="144.9647388"/>
      <trkpt lat="-37.8116084" lon="144.9647555"/>
      <trkpt lat="-37.8116025" lon="144.9647737"/>
      <trkpt lat="-37.8115662" lon="144.9648854"/>
      <trkpt lat="-37.8116762" lon="144.9647865"/>
      <trkpt lat="-37.8117127" lon="144.9648032"/>
      <trkpt lat="-37.8124865" lon="144.9651589"/>
      <trkpt lat="-37.8125339" lon="144.9652019"/>
      <trkpt lat="-37.812497" lon="144.9653309"/>
      <trkpt lat="-37.812535" lon="144.965181"/>
      <trkpt lat="-37.812539" lon="144.9651841"/>
      <trkpt lat="-37.8125883" lon="144.9652068"/>
      <trkpt lat="-37.8125339" lon="144.9652019"/>
      <trkpt lat="-37.812497" lon="144.9653309"/>
      <trkpt lat="-37.8124209" lon="144.9655999"/>
      <trkpt lat="-37.8124031" lon="144.9656617"/>
      <trkpt lat="-37.812365" lon="144.9657963"/>
      <trkpt lat="-37.8123368" lon="144.9658907"/>
      <trkpt lat="-37.8121802" lon="144.9664108"/>
      <trkpt lat="-37.8121641" lon="144.9664652"/>
      <trkpt lat="-37.8121085" lon="144.9666597"/>
      <trkpt lat="-37.8120565" lon="144.9668331"/>
      <trkpt lat="-37.8120468" lon="144.9668641"/>
      <trkpt lat="-37.8120191" lon="144.9669548"/>
      <trkpt lat="-37.8119828" lon="144.9670769"/>
      <trkpt lat="-37.81194" lon="144.9672186"/>
      <trkpt lat="-37.8119244" lon="144.9672708"/>
      <trkpt lat="-37.8118512" lon="144.9675084"/>
      <trkpt lat="-37.8117807" lon="144.967571"/>
      <trkpt lat="-37.8118271" lon="144.9675921"/>
      <trkpt lat="-37.8118775" lon="144.9676157"/>
      <trkpt lat="-37.8119192" lon="144.9676344"/>
      <trkpt lat="-37.811817" lon="144.967653"/>
      <trkpt lat="-37.8118512" lon="144.9675084"/>
      <trkpt lat="-37.8118271" lon="144.9675921"/>
      <trkpt lat="-37.8118775" lon="144.9676157"/>
      <trkpt lat="-37.811843" lon="144.9677358"/>
      <trkpt lat="-37.8119192" lon="144.9676344"/>
      <trkpt lat="-37.8120549" lon="144.9676967"/>
      <trkpt lat="-37.8120216" lon="144.9678136"/>
      <trkpt lat="-37.8124836" lon="144.9678732"/>
      <trkpt lat="-37.8126094" lon="144.968108"/>
      <trkpt lat="-37.8127114" lon="144.9679761"/>
      <trkpt lat="-37.8126682" lon="144.9681349"/>
      <trkpt lat="-37.8127608" lon="144.9679984"/>
      <trkpt lat="-37.812715" lon="144.9681564"/>
      <trkpt lat="-37.8127963" lon="144.9680145"/>
      <trkpt lat="-37.8127504" lon="144.9681727"/>
      <trkpt lat="-37.8128209" lon="144.9680257"/>
      <trkpt lat="-37.8127749" lon="144.968184"/>
      <trkpt lat="-37.8128601" lon="144.9680435"/>
      <trkpt lat="-37.8128141" lon="144.9682021"/>
      <trkpt lat="-37.8129327" lon="144.9680768"/>
      <trkpt lat="-37.8128829" lon="144.968234"/>
      <trkpt lat="-37.8129774" lon="144.9680972"/>
      <trkpt lat="-37.8131801" lon="144.9681898"/>
      <trkpt lat="-37.813154" lon="144.9683599"/>
      <trkpt lat="-37.8134366" lon="144.9683063"/>
      <trkpt lat="-37.8135669" lon="144.9683657"/>
      <trkpt lat="-37.813519" lon="144.9685279"/>
      <trkpt lat="-37.8137637" lon="144.9684561"/>
      <trkpt lat="-37.8137163" lon="144.9686184"/>
      <trkpt lat="-37.8138092" lon="144.968476"/>
      <trkpt lat="-37.8137614" lon="144.9686397"/>
      <trkpt lat="-37.8138482" lon="144.9684937"/>
      <trkpt lat="-37.8138026" lon="144.9686592"/>
      <trkpt lat="-37.8142628" lon="144.968682"/>
      <trkpt lat="-37.8145815" lon="144.9690089"/>
      <trkpt lat="-37.8146711" lon="144.9688753"/>
      <trkpt lat="-37.8146248" lon="144.9690271"/>
      <trkpt lat="-37.8147562" lon="144.9688363"/>
      <trkpt lat="-37.8147362" lon="144.9689055"/>
      <trkpt lat="-37.8146924" lon="144.9690555"/>
      <trkpt lat="-37.8146707" lon="144.9691313"/>
      <trkpt lat="-37.814729" lon="144.9690711"/>
      <trkpt lat="-37.814758" lon="144.969013"/>
      <trkpt lat="-37.8148987" lon="144.9689811"/>
      <trkpt lat="-37.8148273" lon="144.9689479"/>
      <trkpt lat="-37.8148014" lon="144.9689359"/>
      <trkpt lat="-37.8147728" lon="144.9689226"/>
      <trkpt lat="-37.8147362" lon="144.9689055"/>
      <trkpt lat="-37.8146711" lon="144.9688753"/>
      <trkpt lat="-37.8148482" lon="144.9688783"/>
      <trkpt lat="-37.8147562" lon="144.9688363"/>
      <trkpt lat="-37.8147688" lon="144.9687935"/>
      <trkpt lat="-37.8148459" lon="144.9685278"/>
      <trkpt lat="-37.8153035" lon="144.9673399"/>
      <trkpt lat="-37.8154032" lon="144.9669973"/>
      <trkpt lat="-37.8154668" lon="144.9668436"/>
      <trkpt lat="-37.8154968" lon="144.9667444"/>
      <trkpt lat="-37.8155085" lon="144.9667055"/>
      <trkpt lat="-37.8153902" lon="144.9666519"/>
      <trkpt lat="-37.8154155" lon="144.9665554"/>
      <trkpt lat="-37.8155451" lon="144.9665909"/>
      <trkpt lat="-37.8156109" lon="144.9666003"/>
      <trkpt lat="-37.8155507" lon="144.9665734"/>
      <trkpt lat="-37.8154875" lon="144.9665456"/>
      <trkpt lat="-37.815556" lon="144.9665568"/>
      <trkpt lat="-37.815476" lon="144.966536"/>
      <trkpt lat="-37.814758" lon="144.969013"/>
      <trkpt lat="-37.8147577" lon="144.9690832"/>
      <trkpt lat="-37.814729" lon="144.9690711"/>
      <trkpt lat="-37.8146707" lon="144.9691313"/>
      <trkpt lat="-37.8146924" lon="144.9690555"/>
      <trkpt lat="-37.8147362" lon="144.9689055"/>
      <trkpt lat="-37.8147562" lon="144.9688363"/>
      <trkpt lat="-37.8146248" lon="144.9690271"/>
      <trkpt lat="-37.8146711" lon="144.9688753"/>
      <trkpt lat="-37.8145815" lon="144.9690089"/>
      <trkpt lat="-37.8142628" lon="144.968682"/>
      <trkpt lat="-37.8138026" lon="144.9686592"/>
      <trkpt lat="-37.8138482" lon="144.9684937"/>
      <trkpt lat="-37.8137614" lon="144.9686397"/>
      <trkpt lat="-37.8138092" lon="144.968476"/>
      <trkpt lat="-37.8137163" lon="144.9686184"/>
      <trkpt lat="-37.8137637" lon="144.9684561"/>
      <trkpt lat="-37.813519" lon="144.9685279"/>
      <trkpt lat="-37.8135669" lon="144.9683657"/>
      <trkpt lat="-37.8134366" lon="144.9683063"/>
      <trkpt lat="-37.813154" lon="144.9683599"/>
      <trkpt lat="-37.8131801" lon="144.9681898"/>
      <trkpt lat="-37.8129774" lon="144.9680972"/>
      <trkpt lat="-37.8128829" lon="144.968234"/>
      <trkpt lat="-37.8129327" lon="144.9680768"/>
      <trkpt lat="-37.8128141" lon="144.9682021"/>
      <trkpt lat="-37.8128601" lon="144.9680435"/>
      <trkpt lat="-37.8127749" lon="144.968184"/>
      <trkpt lat="-37.8128209" lon="144.9680257"/>
      <trkpt lat="-37.8127504" lon="144.9681727"/>
      <trkpt lat="-37.8127963" lon="144.9680145"/>
      <trkpt lat="-37.812715" lon="144.9681564"/>
      <trkpt lat="-37.8127608" lon="144.9679984"/>
      <trkpt lat="-37.8126682" lon="144.9681349"/>
      <trkpt lat="-37.8127114" lon="144.9679761"/>
      <trkpt lat="-37.8126094" lon="144.968108"/>
      <trkpt lat="-37.8124836" lon="144.9678732"/>
      <trkpt lat="-37.8120216" lon="144.9678136"/>
      <trkpt lat="-37.8120549" lon="144.9676967"/>
      <trkpt lat="-37.8119192" lon="144.9676344"/>
      <trkpt lat="-37.811843" lon="144.9677358"/>
      <trkpt lat="-37.8118775" lon="144.9676157"/>
      <trkpt lat="-37.8117674" lon="144.9678009"/>
      <trkpt lat="-37.8117919" lon="144.9677144"/>
      <trkpt lat="-37.8118271" lon="144.9675921"/>
      <trkpt lat="-37.8118512" lon="144.9675084"/>
      <trkpt lat="-37.8117461" lon="144.9676943"/>
      <trkpt lat="-37.8117807" lon="144.967571"/>
      <trkpt lat="-37.8117037" lon="144.967676"/>
      <trkpt lat="-37.8114928" lon="144.9675856"/>
      <trkpt lat="-37.8115316" lon="144.9674499"/>
      <trkpt lat="-37.8111877" lon="144.9674548"/>
      <trkpt lat="-37.8112315" lon="144.967304"/>
      <trkpt lat="-37.8109284" lon="144.9673354"/>
      <trkpt lat="-37.8109881" lon="144.9671934"/>
      <trkpt lat="-37.8109721" lon="144.9671861"/>
      <trkpt lat="-37.8108465" lon="144.9673634"/>
      <trkpt lat="-37.8108636" lon="144.9673056"/>
      <trkpt lat="-37.810906" lon="144.9671561"/>
      <trkpt lat="-37.8109273" lon="144.9670828"/>
      <trkpt lat="-37.810832" lon="144.967198"/>
      <trkpt lat="-37.815476" lon="144.966536"/>
      <trkpt lat="-37.815556" lon="144.9665568"/>
      <trkpt lat="-37.8154875" lon="144.9665456"/>
      <trkpt lat="-37.8155507" lon="144.9665734"/>
      <trkpt lat="-37.8156109" lon="144.9666003"/>
      <trkpt lat="-37.8155451" lon="144.9665909"/>
      <trkpt lat="-37.8154155" lon="144.9665554"/>
      <trkpt lat="-37.8153902" lon="144.9666519"/>
      <trkpt lat="-37.8155085" lon="144.9667055"/>
      <trkpt lat="-37.8154968" lon="144.9667444"/>
      <trkpt lat="-37.8154668" lon="144.9668436"/>
      <trkpt lat="-37.8154032" lon="144.9669973"/>
      <trkpt lat="-37.8153035" lon="144.9673399"/>
      <trkpt lat="-37.8148459" lon="144.9685278"/>
      <trkpt lat="-37.8147688" lon="144.9687935"/>
      <trkpt lat="-37.8147562" lon="144.9688363"/>
      <trkpt lat="-37.8148482" lon="144.9688783"/>
      <trkpt lat="-37.8146711" lon="144.9688753"/>
      <trkpt lat="-37.8147362" lon="144.9689055"/>
      <trkpt lat="-37.8147728" lon="144.9689226"/>
      <trkpt lat="-37.8148014" lon="144.9689359"/>
      <trkpt lat="-37.8148273" lon="144.9689479"/>
      <trkpt lat="-37.8148987" lon="144.9689811"/>
      <trkpt lat="-37.814758" lon="144.969013"/>
      <trkpt lat="-37.8147577" lon="144.9690832"/>
      <trkpt lat="-37.814729" lon="144.9690711"/>
      <trkpt lat="-37.8146707" lon="144.9691313"/>
      <trkpt lat="-37.8146924" lon="144.9690555"/>
      <trkpt lat="-37.8147362" lon="144.9689055"/>
      <trkpt lat="-37.8147562" lon="144.9688363"/>
      <trkpt lat="-37.8146248" lon="144.9690271"/>
      <trkpt lat="-37.8146711" lon="144.9688753"/>
      <trkpt lat="-37.8145815" lon="144.9690089"/>
      <trkpt lat="-37.8142628" lon="144.968682"/>
      <trkpt lat="-37.8138026" lon="144.9686592"/>
      <trkpt lat="-37.8138482" lon="144.9684937"/>
      <trkpt lat="-37.8137614" lon="144.9686397"/>
      <trkpt lat="-37.8138092" lon="144.968476"/>
      <trkpt lat="-37.8137163" lon="144.9686184"/>
      <trkpt lat="-37.8137637" lon="144.9684561"/>
      <trkpt lat="-37.813519" lon="144.9685279"/>
      <trkpt lat="-37.8135669" lon="144.9683657"/>
      <trkpt lat="-37.8134366" lon="144.9683063"/>
      <trkpt lat="-37.813154" lon="144.9683599"/>
      <trkpt lat="-37.8131801" lon="144.9681898"/>
      <trkpt lat="-37.8129774" lon="144.9680972"/>
      <trkpt lat="-37.8128829" lon="144.968234"/>
      <trkpt lat="-37.8129327" lon="144.9680768"/>
      <trkpt lat="-37.8128141" lon="144.9682021"/>
      <trkpt lat="-37.8128601" lon="144.9680435"/>
      <trkpt lat="-37.8127749" lon="144.968184"/>
      <trkpt lat="-37.8128209" lon="144.9680257"/>
      <trkpt lat="-37.8127504" lon="144.9681727"/>
      <trkpt lat="-37.8127963" lon="144.9680145"/>
      <trkpt lat="-37.812715" lon="144.9681564"/>
      <trkpt lat="-37.8127608" lon="144.9679984"/>
      <trkpt lat="-37.8126682" lon="144.9681349"/>
      <trkpt lat="-37.8127114" lon="144.9679761"/>
      <trkpt lat="-37.8126094" lon="144.968108"/>
      <trkpt lat="-37.8124836" lon="144.9678732"/>
      <trkpt lat="-37.8120216" lon="144.9678136"/>
      <trkpt lat="-37.8120549" lon="144.9676967"/>
      <trkpt lat="-37.8119192" lon="144.9676344"/>
      <trkpt lat="-37.811843" lon="144.9677358"/>
      <trkpt lat="-37.8118775" lon="144.9676157"/>
      <trkpt lat="-37.8117674" lon="144.9678009"/>
      <trkpt lat="-37.8117919" lon="144.9677144"/>
      <trkpt lat="-37.8118271" lon="144.9675921"/>
      <trkpt lat="-37.8118512" lon="144.9675084"/>
      <trkpt lat="-37.8117461" lon="144.9676943"/>
      <trkpt lat="-37.8117807" lon="144.967571"/>
      <trkpt lat="-37.8117037" lon="144.967676"/>
      <trkpt lat="-37.8114928" lon="144.9675856"/>
      <trkpt lat="-37.8115316" lon="144.9674499"/>
      <trkpt lat="-37.8111877" lon="144.9674548"/>
      <trkpt lat="-37.8112315" lon="144.967304"/>
      <trkpt lat="-37.8109284" lon="144.9673354"/>
      <trkpt lat="-37.8109881" lon="144.9671934"/>
      <trkpt lat="-37.8109721" lon="144.9671861"/>
      <trkpt lat="-37.8108465" lon="144.9673634"/>
      <trkpt lat="-37.8108636" lon="144.9673056"/>
      <trkpt lat="-37.810906" lon="144.9671561"/>
      <trkpt lat="-37.8109273" lon="144.9670828"/>
      <trkpt lat="-37.810832" lon="144.967198"/>
      <trkpt lat="-37.8109273" lon="144.9670828"/>
      <trkpt lat="-37.810906" lon="144.9671561"/>
      <trkpt lat="-37.8108636" lon="144.9673056"/>
      <trkpt lat="-37.8108465" lon="144.9673634"/>
      <trkpt lat="-37.8109721" lon="144.9671861"/>
      <trkpt lat="-37.8109881" lon="144.9671934"/>
      <trkpt lat="-37.8109284" lon="144.9673354"/>
      <trkpt lat="-37.8112315" lon="144.967304"/>
      <trkpt lat="-37.8111877" lon="144.9674548"/>
      <trkpt lat="-37.8115316" lon="144.9674499"/>
      <trkpt lat="-37.8114928" lon="144.9675856"/>
      <trkpt lat="-37.8117037" lon="144.967676"/>
      <trkpt lat="-37.8117807" lon="144.967571"/>
      <trkpt lat="-37.8117461" lon="144.9676943"/>
      <trkpt lat="-37.8117919" lon="144.9677144"/>
      <trkpt lat="-37.8117674" lon="144.9678009"/>
      <trkpt lat="-37.811817" lon="144.967653"/>
      <trkpt lat="-37.8117037" lon="144.967676"/>
      <trkpt lat="-37.8117461" lon="144.9676943"/>
      <trkpt lat="-37.8117919" lon="144.9677144"/>
      <trkpt lat="-37.811843" lon="144.9677358"/>
      <trkpt lat="-37.8117674" lon="144.9678009"/>
      <trkpt lat="-37.811752" lon="144.9678535"/>
      <trkpt lat="-37.8116536" lon="144.9682497"/>
      <trkpt lat="-37.8115887" lon="144.9684712"/>
      <trkpt lat="-37.811526" lon="144.9686848"/>
      <trkpt lat="-37.8114986" lon="144.9687784"/>
      <trkpt lat="-37.8114605" lon="144.9689081"/>
      <trkpt lat="-37.8114015" lon="144.9691093"/>
      <trkpt lat="-37.8113455" lon="144.9693004"/>
      <trkpt lat="-37.8112854" lon="144.9695046"/>
      <trkpt lat="-37.8112153" lon="144.9697428"/>
      <trkpt lat="-37.8111457" lon="144.9699816"/>
      <trkpt lat="-37.8111494" lon="144.9700784"/>
      <trkpt lat="-37.811118" lon="144.970076"/>
      <trkpt lat="-37.8110537" lon="144.9700695"/>
      <trkpt lat="-37.811101" lon="144.970118"/>
      <trkpt lat="-37.8111457" lon="144.9699816"/>
      <trkpt lat="-37.811118" lon="144.970076"/>
      <trkpt lat="-37.8111494" lon="144.9700784"/>
      <trkpt lat="-37.8111119" lon="144.9702004"/>
      <trkpt lat="-37.811544" lon="144.9702591"/>
      <trkpt lat="-37.8115088" lon="144.9703778"/>
      <trkpt lat="-37.8117188" lon="144.9703394"/>
      <trkpt lat="-37.8116938" lon="144.9704609"/>
      <trkpt lat="-37.8119022" lon="144.970555"/>
      <trkpt lat="-37.8119799" lon="144.9704576"/>
      <trkpt lat="-37.8119476" lon="144.9705735"/>
      <trkpt lat="-37.8120436" lon="144.9704778"/>
      <trkpt lat="-37.8120053" lon="144.9706064"/>
      <trkpt lat="-37.8120816" lon="144.9704882"/>
      <trkpt lat="-37.8120398" lon="144.9706304"/>
      <trkpt lat="-37.812106" lon="144.970495"/>
      <trkpt lat="-37.8120615" lon="144.9706455"/>
      <trkpt lat="-37.8121465" lon="144.9705061"/>
      <trkpt lat="-37.8120976" lon="144.9706706"/>
      <trkpt lat="-37.8122132" lon="144.9705302"/>
      <trkpt lat="-37.8122372" lon="144.9705402"/>
      <trkpt lat="-37.8121641" lon="144.9707056"/>
      <trkpt lat="-37.8125238" lon="144.9706731"/>
      <trkpt lat="-37.8124764" lon="144.9708456"/>
      <trkpt lat="-37.8130371" lon="144.9709227"/>
      <trkpt lat="-37.8129899" lon="144.9710837"/>
      <trkpt lat="-37.8130857" lon="144.9709519"/>
      <trkpt lat="-37.813041" lon="144.9711064"/>
      <trkpt lat="-37.8131253" lon="144.9709737"/>
      <trkpt lat="-37.813076" lon="144.9711226"/>
      <trkpt lat="-37.8134658" lon="144.9711344"/>
      <trkpt lat="-37.8138681" lon="144.9714883"/>
      <trkpt lat="-37.8139478" lon="144.9713602"/>
      <trkpt lat="-37.8139048" lon="144.9715053"/>
      <trkpt lat="-37.8140377" lon="144.9713129"/>
      <trkpt lat="-37.8140288" lon="144.9713443"/>
      <trkpt lat="-37.8140156" lon="144.9713905"/>
      <trkpt lat="-37.8139729" lon="144.9715369"/>
      <trkpt lat="-37.8139637" lon="144.9715684"/>
      <trkpt lat="-37.8139544" lon="144.9716012"/>
      <trkpt lat="-37.8140023" lon="144.9715503"/>
      <trkpt lat="-37.814031" lon="144.9715636"/>
      <trkpt lat="-37.814043" lon="144.971482"/>
      <trkpt lat="-37.8141734" lon="144.9714661"/>
      <trkpt lat="-37.8141078" lon="144.9714339"/>
      <trkpt lat="-37.8140735" lon="144.971418"/>
      <trkpt lat="-37.8140458" lon="144.9714052"/>
      <trkpt lat="-37.8140156" lon="144.9713905"/>
      <trkpt lat="-37.8139478" lon="144.9713602"/>
      <trkpt lat="-37.8141206" lon="144.9713891"/>
      <trkpt lat="-37.8140288" lon="144.9713443"/>
      <trkpt lat="-37.8141305" lon="144.9713553"/>
      <trkpt lat="-37.8140377" lon="144.9713129"/>
      <trkpt lat="-37.8140436" lon="144.9712926"/>
      <trkpt lat="-37.8142132" lon="144.9710693"/>
      <trkpt lat="-37.8141209" lon="144.9710267"/>
      <trkpt lat="-37.814306" lon="144.970883"/>
      <trkpt lat="-37.8141491" lon="144.9708149"/>
      <trkpt lat="-37.8141512" lon="144.9708076"/>
      <trkpt lat="-37.8143295" lon="144.9708017"/>
      <trkpt lat="-37.8143312" lon="144.9707958"/>
      <trkpt lat="-37.8142774" lon="144.9703724"/>
      <trkpt lat="-37.8144467" lon="144.970397"/>
      <trkpt lat="-37.8144512" lon="144.9703813"/>
      <trkpt lat="-37.8142943" lon="144.9703142"/>
      <trkpt lat="-37.8143454" lon="144.9702177"/>
      <trkpt lat="-37.814451" lon="144.9702478"/>
      <trkpt lat="-37.8143758" lon="144.9701569"/>
      <trkpt lat="-37.8145065" lon="144.9700595"/>
      <trkpt lat="-37.8145426" lon="144.9695726"/>
      <trkpt lat="-37.8147466" lon="144.9692267"/>
      <trkpt lat="-37.8147621" lon="144.9691733"/>
      <trkpt lat="-37.8146707" lon="144.9691313"/>
      <trkpt lat="-37.8148564" lon="144.9691243"/>
      <trkpt lat="-37.8147846" lon="144.9690942"/>
      <trkpt lat="-37.8147577" lon="144.9690832"/>
      <trkpt lat="-37.814729" lon="144.9690711"/>
      <trkpt lat="-37.8146924" lon="144.9690555"/>
      <trkpt lat="-37.8146248" lon="144.9690271"/>
      <trkpt lat="-37.814758" lon="144.969013"/>
      <trkpt lat="-37.814043" lon="144.971482"/>
      <trkpt lat="-37.814031" lon="144.9715636"/>
      <trkpt lat="-37.8140023" lon="144.9715503"/>
      <trkpt lat="-37.8139544" lon="144.9716012"/>
      <trkpt lat="-37.8139637" lon="144.9715684"/>
      <trkpt lat="-37.8139729" lon="144.9715369"/>
      <trkpt lat="-37.8140156" lon="144.9713905"/>
      <trkpt lat="-37.8140288" lon="144.9713443"/>
      <trkpt lat="-37.8140377" lon="144.9713129"/>
      <trkpt lat="-37.8139048" lon="144.9715053"/>
      <trkpt lat="-37.8139478" lon="144.9713602"/>
      <trkpt lat="-37.8138681" lon="144.9714883"/>
      <trkpt lat="-37.8134658" lon="144.9711344"/>
      <trkpt lat="-37.813076" lon="144.9711226"/>
      <trkpt lat="-37.8131253" lon="144.9709737"/>
      <trkpt lat="-37.813041" lon="144.9711064"/>
      <trkpt lat="-37.8130857" lon="144.9709519"/>
      <trkpt lat="-37.8129899" lon="144.9710837"/>
      <trkpt lat="-37.8130371" lon="144.9709227"/>
      <trkpt lat="-37.8124764" lon="144.9708456"/>
      <trkpt lat="-37.8125238" lon="144.9706731"/>
      <trkpt lat="-37.8121641" lon="144.9707056"/>
      <trkpt lat="-37.8122372" lon="144.9705402"/>
      <trkpt lat="-37.8122132" lon="144.9705302"/>
      <trkpt lat="-37.8120976" lon="144.9706706"/>
      <trkpt lat="-37.8121465" lon="144.9705061"/>
      <trkpt lat="-37.8120615" lon="144.9706455"/>
      <trkpt lat="-37.812106" lon="144.970495"/>
      <trkpt lat="-37.8120398" lon="144.9706304"/>
      <trkpt lat="-37.8120816" lon="144.9704882"/>
      <trkpt lat="-37.8120053" lon="144.9706064"/>
      <trkpt lat="-37.8120436" lon="144.9704778"/>
      <trkpt lat="-37.8119476" lon="144.9705735"/>
      <trkpt lat="-37.8119799" lon="144.9704576"/>
      <trkpt lat="-37.8119022" lon="144.970555"/>
      <trkpt lat="-37.8116938" lon="144.9704609"/>
      <trkpt lat="-37.8117188" lon="144.9703394"/>
      <trkpt lat="-37.8115088" lon="144.9703778"/>
      <trkpt lat="-37.811544" lon="144.9702591"/>
      <trkpt lat="-37.8111119" lon="144.9702004"/>
      <trkpt lat="-37.8111494" lon="144.9700784"/>
      <trkpt lat="-37.8110643" lon="144.9702545"/>
      <trkpt lat="-37.8110837" lon="144.9701883"/>
      <trkpt lat="-37.811118" lon="144.970076"/>
      <trkpt lat="-37.8111457" lon="144.9699816"/>
      <trkpt lat="-37.811027" lon="144.9701605"/>
      <trkpt lat="-37.8110537" lon="144.9700695"/>
      <trkpt lat="-37.8108948" lon="144.9700962"/>
      <trkpt lat="-37.8106687" lon="144.9698916"/>
      <trkpt lat="-37.810466" lon="144.9698737"/>
      <trkpt lat="-37.8104314" lon="144.9697482"/>
      <trkpt lat="-37.810282" lon="144.9696782"/>
      <trkpt lat="-37.810208" lon="144.9697655"/>
      <trkpt lat="-37.8102385" lon="144.9696555"/>
      <trkpt lat="-37.8101199" lon="144.9698246"/>
      <trkpt lat="-37.8101376" lon="144.9697646"/>
      <trkpt lat="-37.8101801" lon="144.9696194"/>
      <trkpt lat="-37.810201" lon="144.9695499"/>
      <trkpt lat="-37.810116" lon="144.969661"/>
      <trkpt lat="-37.814758" lon="144.969013"/>
      <trkpt lat="-37.8147577" lon="144.9690832"/>
      <trkpt lat="-37.814729" lon="144.9690711"/>
      <trkpt lat="-37.8146707" lon="144.9691313"/>
      <trkpt lat="-37.8146924" lon="144.9690555"/>
      <trkpt lat="-37.8147362" lon="144.9689055"/>
      <trkpt lat="-37.8147562" lon="144.9688363"/>
      <trkpt lat="-37.8146248" lon="144.9690271"/>
      <trkpt lat="-37.8146711" lon="144.9688753"/>
      <trkpt lat="-37.8145815" lon="144.9690089"/>
      <trkpt lat="-37.8142628" lon="144.968682"/>
      <trkpt lat="-37.8138026" lon="144.9686592"/>
      <trkpt lat="-37.8138482" lon="144.9684937"/>
      <trkpt lat="-37.8137614" lon="144.9686397"/>
      <trkpt lat="-37.8138092" lon="144.968476"/>
      <trkpt lat="-37.8137163" lon="144.9686184"/>
      <trkpt lat="-37.8137637" lon="144.9684561"/>
      <trkpt lat="-37.813519" lon="144.9685279"/>
      <trkpt lat="-37.8135669" lon="144.9683657"/>
      <trkpt lat="-37.8134366" lon="144.9683063"/>
      <trkpt lat="-37.813154" lon="144.9683599"/>
      <trkpt lat="-37.8131801" lon="144.9681898"/>
      <trkpt lat="-37.8129774" lon="144.9680972"/>
      <trkpt lat="-37.8128829" lon="144.968234"/>
      <trkpt lat="-37.8129327" lon="144.9680768"/>
      <trkpt lat="-37.8128141" lon="144.9682021"/>
      <trkpt lat="-37.8128601" lon="144.9680435"/>
      <trkpt lat="-37.8127749" lon="144.968184"/>
      <trkpt lat="-37.8128209" lon="144.9680257"/>
      <trkpt lat="-37.8127504" lon="144.9681727"/>
      <trkpt lat="-37.8127963" lon="144.9680145"/>
      <trkpt lat="-37.812715" lon="144.9681564"/>
      <trkpt lat="-37.8127608" lon="144.9679984"/>
      <trkpt lat="-37.8126682" lon="144.9681349"/>
      <trkpt lat="-37.8127114" lon="144.9679761"/>
      <trkpt lat="-37.8126094" lon="144.968108"/>
      <trkpt lat="-37.8124836" lon="144.9678732"/>
      <trkpt lat="-37.8120216" lon="144.9678136"/>
      <trkpt lat="-37.8120549" lon="144.9676967"/>
      <trkpt lat="-37.8119192" lon="144.9676344"/>
      <trkpt lat="-37.811843" lon="144.9677358"/>
      <trkpt lat="-37.8118775" lon="144.9676157"/>
      <trkpt lat="-37.8117674" lon="144.9678009"/>
      <trkpt lat="-37.8117919" lon="144.9677144"/>
      <trkpt lat="-37.8118271" lon="144.9675921"/>
      <trkpt lat="-37.8118512" lon="144.9675084"/>
      <trkpt lat="-37.8117461" lon="144.9676943"/>
      <trkpt lat="-37.8117807" lon="144.967571"/>
      <trkpt lat="-37.8117037" lon="144.967676"/>
      <trkpt lat="-37.8114928" lon="144.9675856"/>
      <trkpt lat="-37.8115316" lon="144.9674499"/>
      <trkpt lat="-37.8111877" lon="144.9674548"/>
      <trkpt lat="-37.8112315" lon="144.967304"/>
      <trkpt lat="-37.8109284" lon="144.9673354"/>
      <trkpt lat="-37.8109881" lon="144.9671934"/>
      <trkpt lat="-37.8109721" lon="144.9671861"/>
      <trkpt lat="-37.8108465" lon="144.9673634"/>
      <trkpt lat="-37.8108636" lon="144.9673056"/>
      <trkpt lat="-37.810906" lon="144.9671561"/>
      <trkpt lat="-37.8109273" lon="144.9670828"/>
      <trkpt lat="-37.810832" lon="144.967198"/>
    </trkseg>
  </trk>
</gpx>
