<?xml version="1.0" encoding="UTF-8"?>
<gpx version="1.1" creator="coffee-run" xmlns="http://www.topografix.com/GPX/1/1">
<trk><name>COFFEE</name>
<trkseg><trkpt lat="-37.820240" lon="144.957580"/><trkpt lat="-37.819560" lon="144.959900"/></trkseg>
<trkseg><trkpt lat="-37.818280" lon="144.956670"/><trkpt lat="-37.816410" lon="144.955800"/></trkseg>
<trkseg><trkpt lat="-37.816410" lon="144.955800"/><trkpt lat="-37.815760" lon="144.958170"/></trkseg>
<trkseg><trkpt lat="-37.819220" lon="144.961130"/><trkpt lat="-37.818860" lon="144.962400"/></trkseg>
<trkseg><trkpt lat="-37.818690" lon="144.959540"/><trkpt lat="-37.817710" lon="144.959050"/></trkseg>
<trkseg><trkpt lat="-37.815570" lon="144.958270"/><trkpt lat="-37.815190" lon="144.959590"/></trkseg>
<trkseg><trkpt lat="-37.816110" lon="144.961140"/><trkpt lat="-37.815011" lon="144.960632"/></trkseg>
<trkseg><trkpt lat="-37.816110" lon="144.961140"/><trkpt lat="-37.815011" lon="144.960632"/></trkseg>
<trkseg><trkpt lat="-37.814970" lon="144.960780"/><trkpt lat="-37.814320" lon="144.963120"/></trkseg>
<trkseg><trkpt lat="-37.816940" lon="144.961690"/><trkpt lat="-37.816460" lon="144.963370"/></trkseg>
<trkseg><trkpt lat="-37.816280" lon="144.964020"/><trkpt lat="-37.815050" lon="144.963470"/></trkseg>
<trkseg><trkpt lat="-37.815100" lon="144.964040"/><trkpt lat="-37.814540" lon="144.965940"/></trkseg>
<trkseg><trkpt lat="-37.816109" lon="144.964179"/><trkpt lat="-37.815640" lon="144.965780"/></trkseg>
<trkseg><trkpt lat="-37.815430" lon="144.966520"/><trkpt lat="-37.814500" lon="144.966080"/></trkseg>
<trkseg><trkpt lat="-37.814390" lon="144.966500"/><trkpt lat="-37.813820" lon="144.968440"/></trkseg>
<trkseg><trkpt lat="-37.815420" lon="144.966560"/><trkpt lat="-37.814883" lon="144.968417"/></trkseg>
<trkseg><trkpt lat="-37.817390" lon="144.967430"/><trkpt lat="-37.816850" lon="144.969310"/></trkseg>
<trkseg><trkpt lat="-37.816690" lon="144.969840"/><trkpt lat="-37.814830" lon="144.968950"/></trkseg>
<trkseg><trkpt lat="-37.812660" lon="144.968800"/><trkpt lat="-37.812150" lon="144.970510"/></trkseg>
<trkseg><trkpt lat="-37.814780" lon="144.969091"/><trkpt lat="-37.814450" lon="144.970380"/></trkseg>
<trkseg><trkpt lat="-37.816655" lon="144.969967"/><trkpt lat="-37.815940" lon="144.972290"/></trkseg>
</trk>
</gpx>
