<?xml version="1.0" encoding="UTF-8"?>
<gpx version="1.1" creator="coffee-run" xmlns="http://www.topografix.com/GPX/1/1">
 <trk>
  <name>COFFEE run through Melbourne CBD</name>
  <trkseg>
   <trkpt lat="-37.818340" lon="144.956658"/>
   <trkpt lat="-37.818089" lon="144.957525"/>
   <trkpt lat="-37.817838" lon="144.958393"/>
   <trkpt lat="-37.817587" lon="144.959260"/>
   <trkpt lat="-37.818579" lon="144.959740"/>
   <trkpt lat="-37.819570" lon="144.960220"/>
   <trkpt lat="-37.819825" lon="144.959352"/>
   <trkpt lat="-37.820079" lon="144.958485"/>
   <trkpt lat="-37.820334" lon="144.957617"/>
   <trkpt lat="-37.819337" lon="144.957137"/>
   <trkpt lat="-37.818340" lon="144.956658"/>
   <trkpt lat="-37.818056" lon="144.957638"/>
   <trkpt lat="-37.817772" lon="144.958618"/>
   <trkpt lat="-37.817489" lon="144.959597"/>
   <trkpt lat="-37.817205" lon="144.960577"/>
   <trkpt lat="-37.816921" lon="144.961557"/>
   <trkpt lat="-37.817923" lon="144.961986"/>
   <trkpt lat="-37.818926" lon="144.962415"/>
   <trkpt lat="-37.819248" lon="144.961318"/>
   <trkpt lat="-37.819570" lon="144.960220"/>
   <trkpt lat="-37.819248" lon="144.961318"/>
   <trkpt lat="-37.818926" lon="144.962415"/>
   <trkpt lat="-37.818129" lon="144.962074"/>
   <trkpt lat="-37.817331" lon="144.961733"/>
   <trkpt lat="-37.816534" lon="144.961392"/>
   <trkpt lat="-37.815736" lon="144.961051"/>
   <trkpt lat="-37.814939" lon="144.960710"/>
   <trkpt lat="-37.814585" lon="144.961933"/>
   <trkpt lat="-37.814230" lon="144.963157"/>
   <trkpt lat="-37.815213" lon="144.963608"/>
   <trkpt lat="-37.816196" lon="144.964060"/>
   <trkpt lat="-37.816558" lon="144.962808"/>
   <trkpt lat="-37.816921" lon="144.961557"/>
   <trkpt lat="-37.816558" lon="144.962808"/>
   <trkpt lat="-37.816196" lon="144.964060"/>
   <trkpt lat="-37.815838" lon="144.965298"/>
   <trkpt lat="-37.815479" lon="144.966536"/>
   <trkpt lat="-37.815121" lon="144.967773"/>
   <trkpt lat="-37.814763" lon="144.969010"/>
   <trkpt lat="-37.814475" lon="144.970005"/>
   <trkpt lat="-37.814187" lon="144.970999"/>
   <trkpt lat="-37.813899" lon="144.971994"/>
   <trkpt lat="-37.813611" lon="144.972988"/>
   <trkpt lat="-37.813323" lon="144.973983"/>
   <trkpt lat="-37.813611" lon="144.972988"/>
   <trkpt lat="-37.813899" lon="144.971994"/>
   <trkpt lat="-37.814187" lon="144.970999"/>
   <trkpt lat="-37.814475" lon="144.970005"/>
   <trkpt lat="-37.814763" lon="144.969010"/>
   <trkpt lat="-37.815747" lon="144.969454"/>
   <trkpt lat="-37.816730" lon="144.969899"/>
   <trkpt lat="-37.816438" lon="144.970896"/>
   <trkpt lat="-37.816145" lon="144.971893"/>
   <trkpt lat="-37.815853" lon="144.972889"/>
   <trkpt lat="-37.815560" lon="144.973886"/>
   <trkpt lat="-37.815268" lon="144.974883"/>
   <trkpt lat="-37.815560" lon="144.973886"/>
   <trkpt lat="-37.815853" lon="144.972889"/>
   <trkpt lat="-37.816145" lon="144.971893"/>
   <trkpt lat="-37.816438" lon="144.970896"/>
   <trkpt lat="-37.816730" lon="144.969899"/>
   <trkpt lat="-37.815942" lon="144.969543"/>
   <trkpt lat="-37.815154" lon="144.969187"/>
   <trkpt lat="-37.814367" lon="144.968832"/>
   <trkpt lat="-37.813579" lon="144.968476"/>
   <trkpt lat="-37.812791" lon="144.968120"/>
   <trkpt lat="-37.812504" lon="144.969111"/>
   <trkpt lat="-37.812217" lon="144.970102"/>
   <trkpt lat="-37.811930" lon="144.971092"/>
   <trkpt lat="-37.811643" lon="144.972083"/>
   <trkpt lat="-37.811356" lon="144.973074"/>
   <trkpt lat="-37.811643" lon="144.972083"/>
   <trkpt lat="-37.811930" lon="144.971092"/>
   <trkpt lat="-37.812217" lon="144.970102"/>
   <trkpt lat="-37.812504" lon="144.969111"/>
   <trkpt lat="-37.812791" lon="144.968120"/>
   <trkpt lat="-37.813152" lon="144.966877"/>
   <trkpt lat="-37.813512" lon="144.965633"/>
   <trkpt lat="-37.814300" lon="144.965995"/>
   <trkpt lat="-37.815088" lon="144.966356"/>
   <trkpt lat="-37.815875" lon="144.966718"/>
   <trkpt lat="-37.816663" lon="144.967079"/>
   <trkpt lat="-37.817451" lon="144.967441"/>
   <trkpt lat="-37.817090" lon="144.968670"/>
   <trkpt lat="-37.816730" lon="144.969899"/>
   <trkpt lat="-37.817090" lon="144.968670"/>
   <trkpt lat="-37.817451" lon="144.967441"/>
   <trkpt lat="-37.817814" lon="144.966205"/>
   <trkpt lat="-37.818177" lon="144.964969"/>
   <trkpt lat="-37.817388" lon="144.964607"/>
   <trkpt lat="-37.816598" lon="144.964244"/>
   <trkpt lat="-37.815809" lon="144.963882"/>
   <trkpt lat="-37.815019" lon="144.963519"/>
   <trkpt lat="-37.814230" lon="144.963157"/>
   <trkpt lat="-37.813871" lon="144.964395"/>
   <trkpt lat="-37.813512" lon="144.965633"/>
   <trkpt lat="-37.813871" lon="144.964395"/>
   <trkpt lat="-37.814230" lon="144.963157"/>
  </trkseg>
 </trk>
</gpx>
